{
"type": "FeatureCollection",
"name": "low_points",
"crs": { "type": "name", "properties": { "name": "urn:ogc:def:crs:OGC:1.3:CRS84" } },
"features": [
{ "type": "Feature", "properties": { "street": "Avon Street", "segment_id": "IA11151", "elev_m": -8.564, "spill_depth_m": 0.539, "catchment_sqft": 4822.0, "ponding_depth_in": 1.36, "ponding_volume_cf": 723.3, "width_ft": 28.1 }, "geometry": { "type": "Point", "coordinates": [ -71.103864734673508, 42.38629164494828 ] } },
{ "type": "Feature", "properties": { "street": "Avon Street", "segment_id": "IA11154", "elev_m": -8.764, "spill_depth_m": 0.127, "catchment_sqft": 2226.0, "ponding_depth_in": 2.07, "ponding_volume_cf": 333.8, "width_ft": 28.1 }, "geometry": { "type": "Point", "coordinates": [ -71.103580075443048, 42.386188187928347 ] } },
{ "type": "Feature", "properties": { "street": "Avon Street", "segment_id": "IA11157", "elev_m": -8.978, "spill_depth_m": 0.117, "catchment_sqft": 2226.0, "ponding_depth_in": 1.81, "ponding_volume_cf": 333.8, "width_ft": 28.1 }, "geometry": { "type": "Point", "coordinates": [ -71.103273723532865, 42.386076467722972 ] } },
{ "type": "Feature", "properties": { "street": "Avon Street", "segment_id": "IA11160", "elev_m": -9.054, "spill_depth_m": 0.07, "catchment_sqft": 2226.0, "ponding_depth_in": 2.76, "ponding_volume_cf": 254.5, "width_ft": 28.1 }, "geometry": { "type": "Point", "coordinates": [ -71.102967212664481, 42.385964986429336 ] } },
{ "type": "Feature", "properties": { "street": "Avon Street", "segment_id": "IA11164", "elev_m": -9.661, "spill_depth_m": 0.15, "catchment_sqft": 3338.0, "ponding_depth_in": 5.91, "ponding_volume_cf": 363.6, "width_ft": 28.1 }, "geometry": { "type": "Point", "coordinates": [ -71.102591454735446, 42.385835159167463 ] } },
{ "type": "Feature", "properties": { "street": "Avon Street", "segment_id": "IA11175", "elev_m": -15.504, "spill_depth_m": 0.127, "catchment_sqft": 9644.0, "ponding_depth_in": 4.99, "ponding_volume_cf": 230.3, "width_ft": 28.1 }, "geometry": { "type": "Point", "coordinates": [ -71.101494521577877, 42.385440644219472 ] } },
{ "type": "Feature", "properties": { "street": "Avon Street", "segment_id": "IA11186", "elev_m": -18.391, "spill_depth_m": 0.107, "catchment_sqft": 10386.0, "ponding_depth_in": 4.2, "ponding_volume_cf": 258.6, "width_ft": 28.1 }, "geometry": { "type": "Point", "coordinates": [ -71.100332970300215, 42.385020469317674 ] } },
{ "type": "Feature", "properties": { "street": "Avon Street", "segment_id": "IA11188", "elev_m": -18.644, "spill_depth_m": 0.36, "catchment_sqft": 1855.0, "ponding_depth_in": 3.01, "ponding_volume_cf": 278.2, "width_ft": 28.1 }, "geometry": { "type": "Point", "coordinates": [ -71.100179600031268, 42.384964906869705 ] } },
{ "type": "Feature", "properties": { "street": "Avon Street", "segment_id": "IA11189", "elev_m": -18.271, "spill_depth_m": 0.09, "catchment_sqft": 556.0, "ponding_depth_in": 1.55, "ponding_volume_cf": 83.5, "width_ft": 28.1 }, "geometry": { "type": "Point", "coordinates": [ -71.100070782876699, 42.384924127945638 ] } }
]
}
