{
"type": "FeatureCollection",
"name": "segments_elev",
"crs": { "type": "name", "properties": { "name": "urn:ogc:def:crs:OGC:1.3:CRS84" } },
"features": [
{ "type": "Feature", "properties": { "inspect_id": "IA19058", "client_seg": "d4e796ff0c1e14b3c10c1f33dfbc97c1", "street": "Preston Road", "length_ft": 39.0, "area_sqft": 984.0, "pci": 72.0, "pci_label": "Satisfactory", "elev_min": null, "elev_mean": null, "lidar_coverage": 0.0 }, "geometry": { "type": "LineString", "coordinates": [ [ -71.102786, 42.384449 ], [ -71.102790170098942, 42.384444360772335 ] ] } },
{ "type": "Feature", "properties": { "inspect_id": "IA19696", "client_seg": "d951951d52ec6a91189923cff7d0163f", "street": "Greene Street", "length_ft": 30.0, "area_sqft": 1181.0, "pci": 91.733151837839401, "pci_label": "Good", "elev_min": null, "elev_mean": null, "lidar_coverage": 0.0 }, "geometry": { "type": "LineString", "coordinates": [ [ -71.103567, 42.384467 ], [ -71.103475262712678, 42.384431787712415 ] ] } },
{ "type": "Feature", "properties": { "inspect_id": "IA11854", "client_seg": "d951951d52ec6a91189923cff7d0163f", "street": "Greene Street", "length_ft": 30.0, "area_sqft": 1181.0, "pci": 68.0, "pci_label": "Fair", "elev_min": null, "elev_mean": null, "lidar_coverage": 0.0 }, "geometry": { "type": "LineString", "coordinates": [ [ -71.103927, 42.384604 ], [ -71.103828, 42.384566 ] ] } },
{ "type": "Feature", "properties": { "inspect_id": "IA15567", "client_seg": "d32a7c86bca63e9b3347c02bf844472e", "street": "Preston Road", "length_ft": 17.0, "area_sqft": 636.0, "pci": 63.0, "pci_label": "Fair", "elev_min": null, "elev_mean": null, "lidar_coverage": 0.0 }, "geometry": { "type": "LineString", "coordinates": [ [ -71.102773026049505, 42.384444675353372 ], [ -71.102786, 42.384449 ] ] } },
{ "type": "Feature", "properties": { "inspect_id": "IA02248", "client_seg": "648f8dd639ef7e9807825e342252bcef", "street": "Preston Road", "length_ft": 16.0, "area_sqft": 593.0, "pci": 65.0, "pci_label": "Fair", "elev_min": null, "elev_mean": null, "lidar_coverage": 0.0 }, "geometry": { "type": "LineString", "coordinates": [ [ -71.102761, 42.384489 ], [ -71.102786, 42.384449 ] ] } },
{ "type": "Feature", "properties": { "inspect_id": "IA02247", "client_seg": "648f8dd639ef7e9807825e342252bcef", "street": "Preston Road", "length_ft": 30.0, "area_sqft": 761.0, "pci": 92.0, "pci_label": "Good", "elev_min": null, "elev_mean": null, "lidar_coverage": 0.0 }, "geometry": { "type": "LineString", "coordinates": [ [ -71.102714, 42.384564 ], [ -71.102761, 42.384489 ] ] } },
{ "type": "Feature", "properties": { "inspect_id": "IA02246", "client_seg": "648f8dd639ef7e9807825e342252bcef", "street": "Preston Road", "length_ft": 30.0, "area_sqft": 688.0, "pci": 81.0, "pci_label": "Satisfactory", "elev_min": null, "elev_mean": null, "lidar_coverage": 0.0 }, "geometry": { "type": "LineString", "coordinates": [ [ -71.102668, 42.384639 ], [ -71.102714, 42.384564 ] ] } },
{ "type": "Feature", "properties": { "inspect_id": "IA02245", "client_seg": "648f8dd639ef7e9807825e342252bcef", "street": "Preston Road", "length_ft": 30.0, "area_sqft": 660.0, "pci": 94.159072421749698, "pci_label": "Good", "elev_min": null, "elev_mean": null, "lidar_coverage": 0.0 }, "geometry": { "type": "LineString", "coordinates": [ [ -71.102621, 42.384713 ], [ -71.102668, 42.384639 ] ] } },
{ "type": "Feature", "properties": { "inspect_id": "IA02244", "client_seg": "648f8dd639ef7e9807825e342252bcef", "street": "Preston Road", "length_ft": 30.0, "area_sqft": 707.0, "pci": 81.0, "pci_label": "Satisfactory", "elev_min": null, "elev_mean": null, "lidar_coverage": 0.0 }, "geometry": { "type": "LineString", "coordinates": [ [ -71.102574, 42.384788 ], [ -71.102621, 42.384713 ] ] } },
{ "type": "Feature", "properties": { "inspect_id": "IA02243", "client_seg": "648f8dd639ef7e9807825e342252bcef", "street": "Preston Road", "length_ft": 30.0, "area_sqft": 592.0, "pci": 84.0, "pci_label": "Satisfactory", "elev_min": null, "elev_mean": null, "lidar_coverage": 0.0 }, "geometry": { "type": "LineString", "coordinates": [ [ -71.102528, 42.384863 ], [ -71.102574, 42.384788 ] ] } },
{ "type": "Feature", "properties": { "inspect_id": "IA02242", "client_seg": "648f8dd639ef7e9807825e342252bcef", "street": "Preston Road", "length_ft": 30.0, "area_sqft": 599.0, "pci": 85.674536847748698, "pci_label": "Good", "elev_min": null, "elev_mean": null, "lidar_coverage": 0.0 }, "geometry": { "type": "LineString", "coordinates": [ [ -71.102481, 42.384937 ], [ -71.102528, 42.384863 ] ] } },
{ "type": "Feature", "properties": { "inspect_id": "IA02241", "client_seg": "648f8dd639ef7e9807825e342252bcef", "street": "Preston Road", "length_ft": 30.0, "area_sqft": 554.0, "pci": 85.402151612874405, "pci_label": "Good", "elev_min": null, "elev_mean": null, "lidar_coverage": 0.0 }, "geometry": { "type": "LineString", "coordinates": [ [ -71.102434, 42.385012 ], [ -71.102481, 42.384937 ] ] } },
{ "type": "Feature", "properties": { "inspect_id": "IA11857", "client_seg": "d951951d52ec6a91189923cff7d0163f", "street": "Greene Street", "length_ft": 19.0, "area_sqft": 511.0, "pci": 51.0, "pci_label": "Poor", "elev_min": null, "elev_mean": null, "lidar_coverage": 0.0 }, "geometry": { "type": "LineString", "coordinates": [ [ -71.103631, 42.384491 ], [ -71.103567, 42.384467 ] ] } },
{ "type": "Feature", "properties": { "inspect_id": "IA02293", "client_seg": "64b65da54e34f55299139726d3d826b8", "street": "Greene Street", "length_ft": 30.0, "area_sqft": 792.0, "pci": 53.0, "pci_label": "Poor", "elev_min": null, "elev_mean": null, "lidar_coverage": 0.0 }, "geometry": { "type": "LineString", "coordinates": [ [ -71.103567, 42.384467 ], [ -71.103517, 42.38454 ] ] } },
{ "type": "Feature", "properties": { "inspect_id": "IA11856", "client_seg": "d951951d52ec6a91189923cff7d0163f", "street": "Greene Street", "length_ft": 30.0, "area_sqft": 613.0, "pci": 37.0, "pci_label": "Very Poor", "elev_min": null, "elev_mean": null, "lidar_coverage": 0.0 }, "geometry": { "type": "LineString", "coordinates": [ [ -71.103729, 42.384529 ], [ -71.103631, 42.384491 ] ] } },
{ "type": "Feature", "properties": { "inspect_id": "IA11855", "client_seg": "d951951d52ec6a91189923cff7d0163f", "street": "Greene Street", "length_ft": 30.0, "area_sqft": 1181.0, "pci": 82.2, "pci_label": "Satisfactory", "elev_min": null, "elev_mean": null, "lidar_coverage": 0.0 }, "geometry": { "type": "LineString", "coordinates": [ [ -71.103828, 42.384566 ], [ -71.103729, 42.384529 ] ] } },
{ "type": "Feature", "properties": { "inspect_id": "IA02294", "client_seg": "64b65da54e34f55299139726d3d826b8", "street": "Greene Street", "length_ft": 30.0, "area_sqft": 1181.0, "pci": 90.0, "pci_label": "Good", "elev_min": null, "elev_mean": null, "lidar_coverage": 0.0 }, "geometry": { "type": "LineString", "coordinates": [ [ -71.103517, 42.38454 ], [ -71.103466, 42.384614 ] ] } },
{ "type": "Feature", "properties": { "inspect_id": "IA02295", "client_seg": "64b65da54e34f55299139726d3d826b8", "street": "Greene Street", "length_ft": 30.0, "area_sqft": 1181.0, "pci": 81.0, "pci_label": "Satisfactory", "elev_min": null, "elev_mean": null, "lidar_coverage": 0.0 }, "geometry": { "type": "LineString", "coordinates": [ [ -71.103466, 42.384614 ], [ -71.103416, 42.384687 ] ] } },
{ "type": "Feature", "properties": { "inspect_id": "IA02296", "client_seg": "64b65da54e34f55299139726d3d826b8", "street": "Greene Street", "length_ft": 30.0, "area_sqft": 1181.0, "pci": 90.0, "pci_label": "Good", "elev_min": null, "elev_mean": null, "lidar_coverage": 0.0 }, "geometry": { "type": "LineString", "coordinates": [ [ -71.103416, 42.384687 ], [ -71.103365, 42.38476 ] ] } },
{ "type": "Feature", "properties": { "inspect_id": "IA02297", "client_seg": "64b65da54e34f55299139726d3d826b8", "street": "Greene Street", "length_ft": 30.0, "area_sqft": 1181.0, "pci": 89.0, "pci_label": "Good", "elev_min": null, "elev_mean": null, "lidar_coverage": 0.0 }, "geometry": { "type": "LineString", "coordinates": [ [ -71.103365, 42.38476 ], [ -71.103315, 42.384834 ] ] } },
{ "type": "Feature", "properties": { "inspect_id": "IA02298", "client_seg": "64b65da54e34f55299139726d3d826b8", "street": "Greene Street", "length_ft": 30.0, "area_sqft": 1181.0, "pci": 91.766923260901393, "pci_label": "Good", "elev_min": null, "elev_mean": null, "lidar_coverage": 0.0 }, "geometry": { "type": "LineString", "coordinates": [ [ -71.103315, 42.384834 ], [ -71.103264, 42.384907 ] ] } },
{ "type": "Feature", "properties": { "inspect_id": "IA02299", "client_seg": "64b65da54e34f55299139726d3d826b8", "street": "Greene Street", "length_ft": 30.0, "area_sqft": 1181.0, "pci": 92.8966333379433, "pci_label": "Good", "elev_min": null, "elev_mean": null, "lidar_coverage": 0.0 }, "geometry": { "type": "LineString", "coordinates": [ [ -71.103264, 42.384907 ], [ -71.103214, 42.38498 ] ] } },
{ "type": "Feature", "properties": { "inspect_id": "IA11853", "client_seg": "d951951d52ec6a91189923cff7d0163f", "street": "Greene Street", "length_ft": 30.0, "area_sqft": 1181.0, "pci": 56.0, "pci_label": "Fair", "elev_min": null, "elev_mean": null, "lidar_coverage": 0.0 }, "geometry": { "type": "LineString", "coordinates": [ [ -71.104026, 42.384641 ], [ -71.103927, 42.384604 ] ] } },
{ "type": "Feature", "properties": { "inspect_id": "IA11852", "client_seg": "d951951d52ec6a91189923cff7d0163f", "street": "Greene Street", "length_ft": 30.0, "area_sqft": 1181.0, "pci": 66.0, "pci_label": "Fair", "elev_min": null, "elev_mean": null, "lidar_coverage": 0.0 }, "geometry": { "type": "LineString", "coordinates": [ [ -71.104125, 42.384679 ], [ -71.104026, 42.384641 ] ] } },
{ "type": "Feature", "properties": { "inspect_id": "IA11112", "client_seg": "38b44f789f62e8025e16259dd17f5fac", "street": "Laurel Street", "length_ft": 30.0, "area_sqft": 1181.0, "pci": 81.0, "pci_label": "Satisfactory", "elev_min": null, "elev_mean": null, "lidar_coverage": 0.0 }, "geometry": { "type": "LineString", "coordinates": [ [ -71.104223, 42.384717 ], [ -71.104239996405681, 42.384691845340924 ] ] } },
{ "type": "Feature", "properties": { "inspect_id": "IA11851", "client_seg": "d951951d52ec6a91189923cff7d0163f", "street": "Greene Street", "length_ft": 30.0, "area_sqft": 1181.0, "pci": 77.0, "pci_label": "Satisfactory", "elev_min": null, "elev_mean": null, "lidar_coverage": 0.0 }, "geometry": { "type": "LineString", "coordinates": [ [ -71.104223, 42.384717 ], [ -71.104163, 42.384693 ], [ -71.104125, 42.384679 ] ] } },
{ "type": "Feature", "properties": { "inspect_id": "IA02214", "client_seg": "38359a4743707dfe5b7326c92934c144", "street": "Laurel Street", "length_ft": 35.0, "area_sqft": 1377.0, "pci": 88.0, "pci_label": "Good", "elev_min": null, "elev_mean": null, "lidar_coverage": 0.0 }, "geometry": { "type": "LineString", "coordinates": [ [ -71.104165, 42.384803 ], [ -71.104223, 42.384717 ] ] } },
{ "type": "Feature", "properties": { "inspect_id": "IA02213", "client_seg": "38359a4743707dfe5b7326c92934c144", "street": "Laurel Street", "length_ft": 30.0, "area_sqft": 1181.0, "pci": 90.0, "pci_label": "Good", "elev_min": null, "elev_mean": null, "lidar_coverage": 0.0 }, "geometry": { "type": "LineString", "coordinates": [ [ -71.104116, 42.384877 ], [ -71.104165, 42.384803 ] ] } },
{ "type": "Feature", "properties": { "inspect_id": "IA02212", "client_seg": "38359a4743707dfe5b7326c92934c144", "street": "Laurel Street", "length_ft": 30.0, "area_sqft": 485.0, "pci": 75.6, "pci_label": "Satisfactory", "elev_min": null, "elev_mean": null, "lidar_coverage": 0.0 }, "geometry": { "type": "LineString", "coordinates": [ [ -71.104066, 42.38495 ], [ -71.104116, 42.384877 ] ] } },
{ "type": "Feature", "properties": { "inspect_id": "IA02211", "client_seg": "38359a4743707dfe5b7326c92934c144", "street": "Laurel Street", "length_ft": 30.0, "area_sqft": 1181.0, "pci": 81.5, "pci_label": "Satisfactory", "elev_min": null, "elev_mean": null, "lidar_coverage": 0.0 }, "geometry": { "type": "LineString", "coordinates": [ [ -71.104017, 42.385024 ], [ -71.104066, 42.38495 ] ] } },
{ "type": "Feature", "properties": { "inspect_id": "IA02210", "client_seg": "38359a4743707dfe5b7326c92934c144", "street": "Laurel Street", "length_ft": 30.0, "area_sqft": 1181.0, "pci": 82.8, "pci_label": "Satisfactory", "elev_min": null, "elev_mean": null, "lidar_coverage": 0.0 }, "geometry": { "type": "LineString", "coordinates": [ [ -71.103968, 42.385098 ], [ -71.104017, 42.385024 ] ] } },
{ "type": "Feature", "properties": { "inspect_id": "IA02266", "client_seg": "e0f3f93c82f3ccbf639763ade4dac154", "street": "Summer Street", "length_ft": 30.0, "area_sqft": 886.0, "pci": 98.946635958305706, "pci_label": "Good", "elev_min": null, "elev_mean": null, "lidar_coverage": 0.0 }, "geometry": { "type": "LineString", "coordinates": [ [ -71.102105, 42.384985 ], [ -71.102205, 42.385021 ] ] } },
{ "type": "Feature", "properties": { "inspect_id": "IA02267", "client_seg": "e0f3f93c82f3ccbf639763ade4dac154", "street": "Summer Street", "length_ft": 30.0, "area_sqft": 797.0, "pci": 94.054883706389703, "pci_label": "Good", "elev_min": null, "elev_mean": null, "lidar_coverage": 0.0 }, "geometry": { "type": "LineString", "coordinates": [ [ -71.102205, 42.385021 ], [ -71.102305, 42.385057 ] ] } },
{ "type": "Feature", "properties": { "inspect_id": "IA02240", "client_seg": "648f8dd639ef7e9807825e342252bcef", "street": "Preston Road", "length_ft": 30.0, "area_sqft": 1074.0, "pci": 90.0, "pci_label": "Good", "elev_min": null, "elev_mean": null, "lidar_coverage": 0.0 }, "geometry": { "type": "LineString", "coordinates": [ [ -71.102386, 42.385086 ], [ -71.102412, 42.385048 ], [ -71.102434, 42.385012 ] ] } },
{ "type": "Feature", "properties": { "inspect_id": "IA02268", "client_seg": "e0f3f93c82f3ccbf639763ade4dac154", "street": "Summer Street", "length_ft": 24.0, "area_sqft": 950.0, "pci": 88.0, "pci_label": "Good", "elev_min": null, "elev_mean": null, "lidar_coverage": 0.0 }, "geometry": { "type": "LineString", "coordinates": [ [ -71.102305, 42.385057 ], [ -71.102386, 42.385086 ] ] } },
{ "type": "Feature", "properties": { "inspect_id": "IA02234", "client_seg": "766e088370ea08f22ffb52dce8114845", "street": "Summer Street", "length_ft": 30.0, "area_sqft": 1095.0, "pci": 88.0, "pci_label": "Good", "elev_min": null, "elev_mean": null, "lidar_coverage": 0.0 }, "geometry": { "type": "LineString", "coordinates": [ [ -71.102386, 42.385086 ], [ -71.102486, 42.385122 ] ] } },
{ "type": "Feature", "properties": { "inspect_id": "IA02235", "client_seg": "766e088370ea08f22ffb52dce8114845", "street": "Summer Street", "length_ft": 30.0, "area_sqft": 588.0, "pci": 94.539782333969896, "pci_label": "Good", "elev_min": null, "elev_mean": null, "lidar_coverage": 0.0 }, "geometry": { "type": "LineString", "coordinates": [ [ -71.102486, 42.385122 ], [ -71.102586, 42.385157 ] ] } },
{ "type": "Feature", "properties": { "inspect_id": "IA02236", "client_seg": "766e088370ea08f22ffb52dce8114845", "street": "Summer Street", "length_ft": 30.0, "area_sqft": 561.0, "pci": 94.371138047261596, "pci_label": "Good", "elev_min": null, "elev_mean": null, "lidar_coverage": 0.0 }, "geometry": { "type": "LineString", "coordinates": [ [ -71.102586, 42.385157 ], [ -71.102686, 42.385193 ] ] } },
{ "type": "Feature", "properties": { "inspect_id": "IA02237", "client_seg": "766e088370ea08f22ffb52dce8114845", "street": "Summer Street", "length_ft": 30.0, "area_sqft": 589.0, "pci": 95.0570816563569, "pci_label": "Good", "elev_min": null, "elev_mean": null, "lidar_coverage": 0.0 }, "geometry": { "type": "LineString", "coordinates": [ [ -71.102686, 42.385193 ], [ -71.102787, 42.385229 ] ] } },
{ "type": "Feature", "properties": { "inspect_id": "IA02238", "client_seg": "766e088370ea08f22ffb52dce8114845", "street": "Summer Street", "length_ft": 30.0, "area_sqft": 641.0, "pci": 95.047037625847395, "pci_label": "Good", "elev_min": null, "elev_mean": null, "lidar_coverage": 0.0 }, "geometry": { "type": "LineString", "coordinates": [ [ -71.102787, 42.385229 ], [ -71.102799, 42.385233 ], [ -71.102887, 42.385264 ] ] } },
{ "type": "Feature", "properties": { "inspect_id": "IA02239", "client_seg": "766e088370ea08f22ffb52dce8114845", "street": "Summer Street", "length_ft": 32.0, "area_sqft": 1020.0, "pci": 97.067644911080507, "pci_label": "Good", "elev_min": null, "elev_mean": null, "lidar_coverage": 0.0 }, "geometry": { "type": "LineString", "coordinates": [ [ -71.102887, 42.385264 ], [ -71.102901, 42.385269 ], [ -71.102992, 42.385303 ] ] } },
{ "type": "Feature", "properties": { "inspect_id": "IA02300", "client_seg": "64b65da54e34f55299139726d3d826b8", "street": "Greene Street", "length_ft": 30.0, "area_sqft": 1181.0, "pci": 97.224133671809497, "pci_label": "Good", "elev_min": null, "elev_mean": null, "lidar_coverage": 0.0 }, "geometry": { "type": "LineString", "coordinates": [ [ -71.103214, 42.38498 ], [ -71.103164, 42.385054 ] ] } },
{ "type": "Feature", "properties": { "inspect_id": "IA02301", "client_seg": "64b65da54e34f55299139726d3d826b8", "street": "Greene Street", "length_ft": 30.0, "area_sqft": 1181.0, "pci": 93.038366124931301, "pci_label": "Good", "elev_min": null, "elev_mean": null, "lidar_coverage": 0.0 }, "geometry": { "type": "LineString", "coordinates": [ [ -71.103164, 42.385054 ], [ -71.103113, 42.385127 ] ] } },
{ "type": "Feature", "properties": { "inspect_id": "IA02302", "client_seg": "64b65da54e34f55299139726d3d826b8", "street": "Greene Street", "length_ft": 30.0, "area_sqft": 486.0, "pci": 81.5, "pci_label": "Satisfactory", "elev_min": null, "elev_mean": null, "lidar_coverage": 0.0 }, "geometry": { "type": "LineString", "coordinates": [ [ -71.103113, 42.385127 ], [ -71.103063, 42.3852 ] ] } },
{ "type": "Feature", "properties": { "inspect_id": "IA02208", "client_seg": "38359a4743707dfe5b7326c92934c144", "street": "Laurel Street", "length_ft": 30.0, "area_sqft": 1181.0, "pci": 82.0, "pci_label": "Satisfactory", "elev_min": null, "elev_mean": null, "lidar_coverage": 0.0 }, "geometry": { "type": "LineString", "coordinates": [ [ -71.103864, 42.385243 ], [ -71.103917, 42.385171 ] ] } },
{ "type": "Feature", "properties": { "inspect_id": "IA02303", "client_seg": "64b65da54e34f55299139726d3d826b8", "street": "Greene Street", "length_ft": 42.0, "area_sqft": 785.0, "pci": 96.655030439084598, "pci_label": "Good", "elev_min": null, "elev_mean": null, "lidar_coverage": 0.0 }, "geometry": { "type": "LineString", "coordinates": [ [ -71.103063, 42.3852 ], [ -71.103025, 42.385255 ], [ -71.102992, 42.385303 ] ] } },
{ "type": "Feature", "properties": { "inspect_id": "IA02207", "client_seg": "38359a4743707dfe5b7326c92934c144", "street": "Laurel Street", "length_ft": 30.0, "area_sqft": 1181.0, "pci": 71.0, "pci_label": "Satisfactory", "elev_min": null, "elev_mean": null, "lidar_coverage": 0.0 }, "geometry": { "type": "LineString", "coordinates": [ [ -71.103811, 42.385316 ], [ -71.103864, 42.385243 ] ] } },
{ "type": "Feature", "properties": { "inspect_id": "IA02202", "client_seg": "6b2c095b8ddcc2d0e66a226d3a5dafd7", "street": "Summer Street", "length_ft": 30.0, "area_sqft": 602.0, "pci": 94.070587109772205, "pci_label": "Good", "elev_min": null, "elev_mean": null, "lidar_coverage": 0.0 }, "geometry": { "type": "LineString", "coordinates": [ [ -71.103151, 42.385359 ], [ -71.103051, 42.385324 ] ] } },
{ "type": "Feature", "properties": { "inspect_id": "IA02206", "client_seg": "38359a4743707dfe5b7326c92934c144", "street": "Laurel Street", "length_ft": 30.0, "area_sqft": 1181.0, "pci": 80.8, "pci_label": "Satisfactory", "elev_min": null, "elev_mean": null, "lidar_coverage": 0.0 }, "geometry": { "type": "LineString", "coordinates": [ [ -71.103759, 42.385388 ], [ -71.103811, 42.385316 ] ] } },
{ "type": "Feature", "properties": { "inspect_id": "IA02201", "client_seg": "6b2c095b8ddcc2d0e66a226d3a5dafd7", "street": "Summer Street", "length_ft": 30.0, "area_sqft": 632.0, "pci": 98.327480795945405, "pci_label": "Good", "elev_min": null, "elev_mean": null, "lidar_coverage": 0.0 }, "geometry": { "type": "LineString", "coordinates": [ [ -71.103252, 42.385394 ], [ -71.103151, 42.385359 ] ] } },
{ "type": "Feature", "properties": { "inspect_id": "IA02200", "client_seg": "6b2c095b8ddcc2d0e66a226d3a5dafd7", "street": "Summer Street", "length_ft": 30.0, "area_sqft": 594.0, "pci": 94.8884373696485, "pci_label": "Good", "elev_min": null, "elev_mean": null, "lidar_coverage": 0.0 }, "geometry": { "type": "LineString", "coordinates": [ [ -71.103352, 42.385429 ], [ -71.103292, 42.385407 ], [ -71.103252, 42.385394 ] ] } },
{ "type": "Feature", "properties": { "inspect_id": "IA02251", "client_seg": "e0f3f93c82f3ccbf639763ade4dac154", "street": "Summer Street", "length_ft": 30.0, "area_sqft": 977.0, "pci": 95.297643963765793, "pci_label": "Good", "elev_min": null, "elev_mean": null, "lidar_coverage": 0.0 }, "geometry": { "type": "LineString", "coordinates": [ [ -71.100703951504642, 42.384482622542329 ], [ -71.100705, 42.384483 ] ] } },
{ "type": "Feature", "properties": { "inspect_id": "IA18396", "client_seg": "2b84cb8ee759c63f1db49bf82f98c006", "street": "School Street", "length_ft": 30.0, "area_sqft": 910.0, "pci": 89.0, "pci_label": "Good", "elev_min": null, "elev_mean": null, "lidar_coverage": 0.0 }, "geometry": { "type": "LineString", "coordinates": [ [ -71.100293, 42.384546 ], [ -71.100330432728171, 42.384489468958186 ] ] } },
{ "type": "Feature", "properties": { "inspect_id": "IA02252", "client_seg": "e0f3f93c82f3ccbf639763ade4dac154", "street": "Summer Street", "length_ft": 30.0, "area_sqft": 898.0, "pci": 94.0, "pci_label": "Good", "elev_min": null, "elev_mean": null, "lidar_coverage": 0.0 }, "geometry": { "type": "LineString", "coordinates": [ [ -71.100705, 42.384483 ], [ -71.100805, 42.384519 ] ] } },
{ "type": "Feature", "properties": { "inspect_id": "IA02253", "client_seg": "e0f3f93c82f3ccbf639763ade4dac154", "street": "Summer Street", "length_ft": 30.0, "area_sqft": 938.0, "pci": 94.306226618872699, "pci_label": "Good", "elev_min": null, "elev_mean": null, "lidar_coverage": 0.0 }, "geometry": { "type": "LineString", "coordinates": [ [ -71.100805, 42.384519 ], [ -71.100905, 42.384555 ] ] } },
{ "type": "Feature", "properties": { "inspect_id": "IA18395", "client_seg": "2b84cb8ee759c63f1db49bf82f98c006", "street": "School Street", "length_ft": 30.0, "area_sqft": 899.0, "pci": 95.307242094034194, "pci_label": "Good", "elev_min": null, "elev_mean": null, "lidar_coverage": 0.0 }, "geometry": { "type": "LineString", "coordinates": [ [ -71.100244, 42.38462 ], [ -71.100293, 42.384546 ] ] } },
{ "type": "Feature", "properties": { "inspect_id": "IA02254", "client_seg": "e0f3f93c82f3ccbf639763ade4dac154", "street": "Summer Street", "length_ft": 30.0, "area_sqft": 870.0, "pci": 96.067114451142601, "pci_label": "Good", "elev_min": null, "elev_mean": null, "lidar_coverage": 0.0 }, "geometry": { "type": "LineString", "coordinates": [ [ -71.100905, 42.384555 ], [ -71.100944, 42.384569 ], [ -71.101005, 42.384591 ] ] } },
{ "type": "Feature", "properties": { "inspect_id": "IA02255", "client_seg": "e0f3f93c82f3ccbf639763ade4dac154", "street": "Summer Street", "length_ft": 30.0, "area_sqft": 917.0, "pci": 89.0, "pci_label": "Good", "elev_min": null, "elev_mean": null, "lidar_coverage": 0.0 }, "geometry": { "type": "LineString", "coordinates": [ [ -71.101005, 42.384591 ], [ -71.101105, 42.384627 ] ] } },
{ "type": "Feature", "properties": { "inspect_id": "IA02258", "client_seg": "e0f3f93c82f3ccbf639763ade4dac154", "street": "Summer Street", "length_ft": 30.0, "area_sqft": 1029.0, "pci": 87.877828051725103, "pci_label": "Good", "elev_min": null, "elev_mean": null, "lidar_coverage": 0.0 }, "geometry": { "type": "LineString", "coordinates": [ [ -71.101305, 42.384698 ], [ -71.101405, 42.384734 ] ] } },
{ "type": "Feature", "properties": { "inspect_id": "IA02259", "client_seg": "e0f3f93c82f3ccbf639763ade4dac154", "street": "Summer Street", "length_ft": 30.0, "area_sqft": 1059.0, "pci": 88.007365047465996, "pci_label": "Good", "elev_min": null, "elev_mean": null, "lidar_coverage": 0.0 }, "geometry": { "type": "LineString", "coordinates": [ [ -71.101405, 42.384734 ], [ -71.101466, 42.384756 ], [ -71.101505, 42.38477 ] ] } },
{ "type": "Feature", "properties": { "inspect_id": "IA02260", "client_seg": "e0f3f93c82f3ccbf639763ade4dac154", "street": "Summer Street", "length_ft": 30.0, "area_sqft": 1039.0, "pci": 88.0, "pci_label": "Good", "elev_min": null, "elev_mean": null, "lidar_coverage": 0.0 }, "geometry": { "type": "LineString", "coordinates": [ [ -71.101505, 42.38477 ], [ -71.101605, 42.384806 ] ] } },
{ "type": "Feature", "properties": { "inspect_id": "IA02261", "client_seg": "e0f3f93c82f3ccbf639763ade4dac154", "street": "Summer Street", "length_ft": 30.0, "area_sqft": 1015.0, "pci": 80.0, "pci_label": "Satisfactory", "elev_min": null, "elev_mean": null, "lidar_coverage": 0.0 }, "geometry": { "type": "LineString", "coordinates": [ [ -71.101605, 42.384806 ], [ -71.101705, 42.384842 ] ] } },
{ "type": "Feature", "properties": { "inspect_id": "IA02262", "client_seg": "e0f3f93c82f3ccbf639763ade4dac154", "street": "Summer Street", "length_ft": 30.0, "area_sqft": 922.0, "pci": 95.340271264505404, "pci_label": "Good", "elev_min": null, "elev_mean": null, "lidar_coverage": 0.0 }, "geometry": { "type": "LineString", "coordinates": [ [ -71.101705, 42.384842 ], [ -71.101805, 42.384878 ] ] } },
{ "type": "Feature", "properties": { "inspect_id": "IA02263", "client_seg": "e0f3f93c82f3ccbf639763ade4dac154", "street": "Summer Street", "length_ft": 30.0, "area_sqft": 986.0, "pci": 93.0, "pci_label": "Good", "elev_min": null, "elev_mean": null, "lidar_coverage": 0.0 }, "geometry": { "type": "LineString", "coordinates": [ [ -71.101805, 42.384878 ], [ -71.101905, 42.384914 ] ] } },
{ "type": "Feature", "properties": { "inspect_id": "IA02264", "client_seg": "e0f3f93c82f3ccbf639763ade4dac154", "street": "Summer Street", "length_ft": 30.0, "area_sqft": 897.0, "pci": 93.778959588108407, "pci_label": "Good", "elev_min": null, "elev_mean": null, "lidar_coverage": 0.0 }, "geometry": { "type": "LineString", "coordinates": [ [ -71.101905, 42.384914 ], [ -71.102005, 42.38495 ] ] } },
{ "type": "Feature", "properties": { "inspect_id": "IA02265", "client_seg": "e0f3f93c82f3ccbf639763ade4dac154", "street": "Summer Street", "length_ft": 30.0, "area_sqft": 921.0, "pci": 95.271321908005504, "pci_label": "Good", "elev_min": null, "elev_mean": null, "lidar_coverage": 0.0 }, "geometry": { "type": "LineString", "coordinates": [ [ -71.102005, 42.38495 ], [ -71.102105, 42.384985 ] ] } },
{ "type": "Feature", "properties": { "inspect_id": "IA18394", "client_seg": "2b84cb8ee759c63f1db49bf82f98c006", "street": "School Street", "length_ft": 30.0, "area_sqft": 518.0, "pci": 71.0, "pci_label": "Satisfactory", "elev_min": null, "elev_mean": null, "lidar_coverage": 0.0 }, "geometry": { "type": "LineString", "coordinates": [ [ -71.100195, 42.384694 ], [ -71.100244, 42.38462 ] ] } },
{ "type": "Feature", "properties": { "inspect_id": "IA18393", "client_seg": "2b84cb8ee759c63f1db49bf82f98c006", "street": "School Street", "length_ft": 30.0, "area_sqft": 591.0, "pci": 69.0, "pci_label": "Fair", "elev_min": -13.804900836944581, "elev_mean": -13.408567523956298, "lidar_coverage": 0.6 }, "geometry": { "type": "LineString", "coordinates": [ [ -71.100147, 42.384768 ], [ -71.100195, 42.384694 ] ] } },
{ "type": "Feature", "properties": { "inspect_id": "IA18392", "client_seg": "2b84cb8ee759c63f1db49bf82f98c006", "street": "School Street", "length_ft": 30.0, "area_sqft": 829.0, "pci": 93.0, "pci_label": "Good", "elev_min": -13.852901077270507, "elev_mean": -13.828900957107544, "lidar_coverage": 0.4 }, "geometry": { "type": "LineString", "coordinates": [ [ -71.100098, 42.384842 ], [ -71.100147, 42.384768 ] ] } },
{ "type": "Feature", "properties": { "inspect_id": "IA18391", "client_seg": "2b84cb8ee759c63f1db49bf82f98c006", "street": "School Street", "length_ft": 30.0, "area_sqft": 840.0, "pci": 61.0, "pci_label": "Fair", "elev_min": -18.380901336669922, "elev_mean": -16.204234759012859, "lidar_coverage": 0.6 }, "geometry": { "type": "LineString", "coordinates": [ [ -71.100049, 42.384916 ], [ -71.100098, 42.384842 ] ] } },
{ "type": "Feature", "properties": { "inspect_id": "IA11189", "client_seg": "dcf2db5324e53079531555888fdd10f2", "street": "Avon Street", "length_ft": 20.0, "area_sqft": 563.0, "pci": 94.8884373696485, "pci_label": "Good", "elev_min": -18.380901336669922, "elev_mean": -18.255900859832764, "lidar_coverage": 1.0 }, "geometry": { "type": "LineString", "coordinates": [ [ -71.100116, 42.384941 ], [ -71.100049, 42.384916 ] ] } },
{ "type": "Feature", "properties": { "inspect_id": "IA17215", "client_seg": "cf6674537e4d16a8bc4e6b19348ef4f0", "street": "School Street", "length_ft": 37.0, "area_sqft": 1385.0, "pci": 86.0, "pci_label": "Good", "elev_min": -18.590900421142578, "elev_mean": -18.429234186808269, "lidar_coverage": 1.0 }, "geometry": { "type": "LineString", "coordinates": [ [ -71.099985, 42.385007 ], [ -71.100049, 42.384916 ] ] } },
{ "type": "Feature", "properties": { "inspect_id": "IA11188", "client_seg": "dcf2db5324e53079531555888fdd10f2", "street": "Avon Street", "length_ft": 30.0, "area_sqft": 605.0, "pci": 95.435936996467802, "pci_label": "Good", "elev_min": -18.670900344848633, "elev_mean": -18.536900329589844, "lidar_coverage": 1.0 }, "geometry": { "type": "LineString", "coordinates": [ [ -71.100215, 42.384978 ], [ -71.100142, 42.384951 ], [ -71.100116, 42.384941 ] ] } },
{ "type": "Feature", "properties": { "inspect_id": "IA11187", "client_seg": "dcf2db5324e53079531555888fdd10f2", "street": "Avon Street", "length_ft": 30.0, "area_sqft": 828.0, "pci": 95.074904682752702, "pci_label": "Good", "elev_min": -18.61090087890625, "elev_mean": -18.376901245117189, "lidar_coverage": 1.0 }, "geometry": { "type": "LineString", "coordinates": [ [ -71.100315, 42.385014 ], [ -71.100215, 42.384978 ] ] } },
{ "type": "Feature", "properties": { "inspect_id": "IA17214", "client_seg": "cf6674537e4d16a8bc4e6b19348ef4f0", "street": "School Street", "length_ft": 30.0, "area_sqft": 610.0, "pci": 79.0, "pci_label": "Satisfactory", "elev_min": -18.36090087890625, "elev_mean": -16.195900678634644, "lidar_coverage": 0.8 }, "geometry": { "type": "LineString", "coordinates": [ [ -71.099934, 42.38508 ], [ -71.099985, 42.385007 ] ] } },
{ "type": "Feature", "properties": { "inspect_id": "IA17213", "client_seg": "cf6674537e4d16a8bc4e6b19348ef4f0", "street": "School Street", "length_ft": 30.0, "area_sqft": 707.0, "pci": 93.613423607604702, "pci_label": "Good", "elev_min": null, "elev_mean": null, "lidar_coverage": 0.0 }, "geometry": { "type": "LineString", "coordinates": [ [ -71.099883, 42.385153 ], [ -71.099934, 42.38508 ] ] } },
{ "type": "Feature", "properties": { "inspect_id": "IA02256", "client_seg": "e0f3f93c82f3ccbf639763ade4dac154", "street": "Summer Street", "length_ft": 30.0, "area_sqft": 928.0, "pci": 87.826862443757605, "pci_label": "Good", "elev_min": null, "elev_mean": null, "lidar_coverage": 0.0 }, "geometry": { "type": "LineString", "coordinates": [ [ -71.101105, 42.384627 ], [ -71.101205, 42.384663 ] ] } },
{ "type": "Feature", "properties": { "inspect_id": "IA02257", "client_seg": "e0f3f93c82f3ccbf639763ade4dac154", "street": "Summer Street", "length_ft": 30.0, "area_sqft": 930.0, "pci": 86.3180153452046, "pci_label": "Good", "elev_min": null, "elev_mean": null, "lidar_coverage": 0.0 }, "geometry": { "type": "LineString", "coordinates": [ [ -71.101205, 42.384663 ], [ -71.101305, 42.384698 ] ] } },
{ "type": "Feature", "properties": { "inspect_id": "IA11186", "client_seg": "dcf2db5324e53079531555888fdd10f2", "street": "Avon Street", "length_ft": 30.0, "area_sqft": 634.0, "pci": 94.0, "pci_label": "Good", "elev_min": -18.400901794433594, "elev_mean": -18.316901016235352, "lidar_coverage": 1.0 }, "geometry": { "type": "LineString", "coordinates": [ [ -71.100415, 42.38505 ], [ -71.100315, 42.385014 ] ] } },
{ "type": "Feature", "properties": { "inspect_id": "IA11185", "client_seg": "dcf2db5324e53079531555888fdd10f2", "street": "Avon Street", "length_ft": 30.0, "area_sqft": 503.0, "pci": 86.0, "pci_label": "Good", "elev_min": -18.190900802612305, "elev_mean": -18.138900756835938, "lidar_coverage": 1.0 }, "geometry": { "type": "LineString", "coordinates": [ [ -71.100515, 42.385085 ], [ -71.100415, 42.38505 ] ] } },
{ "type": "Feature", "properties": { "inspect_id": "IA11184", "client_seg": "dcf2db5324e53079531555888fdd10f2", "street": "Avon Street", "length_ft": 30.0, "area_sqft": 474.0, "pci": 92.0, "pci_label": "Good", "elev_min": -18.060901641845703, "elev_mean": -17.922900772094728, "lidar_coverage": 1.0 }, "geometry": { "type": "LineString", "coordinates": [ [ -71.100615, 42.385121 ], [ -71.100583, 42.38511 ], [ -71.100515, 42.385085 ] ] } },
{ "type": "Feature", "properties": { "inspect_id": "IA11183", "client_seg": "dcf2db5324e53079531555888fdd10f2", "street": "Avon Street", "length_ft": 30.0, "area_sqft": 1181.0, "pci": 94.0, "pci_label": "Good", "elev_min": -17.740900039672852, "elev_mean": -17.64290084838867, "lidar_coverage": 1.0 }, "geometry": { "type": "LineString", "coordinates": [ [ -71.100715, 42.385157 ], [ -71.100615, 42.385121 ] ] } },
{ "type": "Feature", "properties": { "inspect_id": "IA11182", "client_seg": "dcf2db5324e53079531555888fdd10f2", "street": "Avon Street", "length_ft": 30.0, "area_sqft": 517.0, "pci": 92.0, "pci_label": "Good", "elev_min": -17.570901870727539, "elev_mean": -17.460901260375977, "lidar_coverage": 1.0 }, "geometry": { "type": "LineString", "coordinates": [ [ -71.100815, 42.385193 ], [ -71.100715, 42.385157 ] ] } },
{ "type": "Feature", "properties": { "inspect_id": "IA11181", "client_seg": "dcf2db5324e53079531555888fdd10f2", "street": "Avon Street", "length_ft": 30.0, "area_sqft": 1181.0, "pci": 94.0, "pci_label": "Good", "elev_min": -17.330900192260742, "elev_mean": -17.216900634765626, "lidar_coverage": 1.0 }, "geometry": { "type": "LineString", "coordinates": [ [ -71.100914, 42.385229 ], [ -71.100815, 42.385193 ] ] } },
{ "type": "Feature", "properties": { "inspect_id": "IA11180", "client_seg": "dcf2db5324e53079531555888fdd10f2", "street": "Avon Street", "length_ft": 30.0, "area_sqft": 1181.0, "pci": 95.900621854646303, "pci_label": "Good", "elev_min": -17.100900650024414, "elev_mean": -16.946900939941408, "lidar_coverage": 1.0 }, "geometry": { "type": "LineString", "coordinates": [ [ -71.101014, 42.385265 ], [ -71.100914, 42.385229 ] ] } },
{ "type": "Feature", "properties": { "inspect_id": "IA11179", "client_seg": "dcf2db5324e53079531555888fdd10f2", "street": "Avon Street", "length_ft": 30.0, "area_sqft": 489.0, "pci": 91.0, "pci_label": "Good", "elev_min": -16.850900650024414, "elev_mean": -16.730900955200195, "lidar_coverage": 1.0 }, "geometry": { "type": "LineString", "coordinates": [ [ -71.101114, 42.385301 ], [ -71.101014, 42.385265 ] ] } },
{ "type": "Feature", "properties": { "inspect_id": "IA17212", "client_seg": "cf6674537e4d16a8bc4e6b19348ef4f0", "street": "School Street", "length_ft": 30.0, "area_sqft": 679.0, "pci": 98.686068997978296, "pci_label": "Good", "elev_min": -5.7364008903503416, "elev_mean": -5.7364008903503416, "lidar_coverage": 0.2 }, "geometry": { "type": "LineString", "coordinates": [ [ -71.099832, 42.385226 ], [ -71.099883, 42.385153 ] ] } },
{ "type": "Feature", "properties": { "inspect_id": "IA17211", "client_seg": "cf6674537e4d16a8bc4e6b19348ef4f0", "street": "School Street", "length_ft": 30.0, "area_sqft": 746.0, "pci": 94.699194357343899, "pci_label": "Good", "elev_min": null, "elev_mean": null, "lidar_coverage": 0.0 }, "geometry": { "type": "LineString", "coordinates": [ [ -71.099781, 42.385299 ], [ -71.099786, 42.385292 ], [ -71.099832, 42.385226 ] ] } },
{ "type": "Feature", "properties": { "inspect_id": "IA17210", "client_seg": "cf6674537e4d16a8bc4e6b19348ef4f0", "street": "School Street", "length_ft": 30.0, "area_sqft": 683.0, "pci": 93.0, "pci_label": "Good", "elev_min": null, "elev_mean": null, "lidar_coverage": 0.0 }, "geometry": { "type": "LineString", "coordinates": [ [ -71.09973, 42.385372 ], [ -71.099781, 42.385299 ] ] } },
{ "type": "Feature", "properties": { "inspect_id": "IA17209", "client_seg": "cf6674537e4d16a8bc4e6b19348ef4f0", "street": "School Street", "length_ft": 30.0, "area_sqft": 798.0, "pci": 79.0, "pci_label": "Satisfactory", "elev_min": null, "elev_mean": null, "lidar_coverage": 0.0 }, "geometry": { "type": "LineString", "coordinates": [ [ -71.099678, 42.385445 ], [ -71.09973, 42.385372 ] ] } },
{ "type": "Feature", "properties": { "inspect_id": "IA17208", "client_seg": "cf6674537e4d16a8bc4e6b19348ef4f0", "street": "School Street", "length_ft": 30.0, "area_sqft": 1109.0, "pci": 88.0, "pci_label": "Good", "elev_min": null, "elev_mean": null, "lidar_coverage": 0.0 }, "geometry": { "type": "LineString", "coordinates": [ [ -71.099627, 42.385518 ], [ -71.099678, 42.385445 ] ] } },
{ "type": "Feature", "properties": { "inspect_id": "IA17216", "client_seg": "8e3b15c10efa7419ed4c5b86fff60d6e", "street": "Berkeley Street", "length_ft": 30.0, "area_sqft": 1042.0, "pci": 92.478625683768001, "pci_label": "Good", "elev_min": null, "elev_mean": null, "lidar_coverage": 0.0 }, "geometry": { "type": "LineString", "coordinates": [ [ -71.099627, 42.385518 ], [ -71.099708, 42.385546 ], [ -71.099728, 42.385553 ] ] } },
{ "type": "Feature", "properties": { "inspect_id": "IA17248", "client_seg": "3e79af1af7a25e398e974d415651af29", "street": "School Street", "length_ft": 21.0, "area_sqft": 826.0, "pci": 93.0, "pci_label": "Good", "elev_min": null, "elev_mean": null, "lidar_coverage": 0.0 }, "geometry": { "type": "LineString", "coordinates": [ [ -71.099592, 42.38557 ], [ -71.099627, 42.385518 ] ] } },
{ "type": "Feature", "properties": { "inspect_id": "IA17217", "client_seg": "8e3b15c10efa7419ed4c5b86fff60d6e", "street": "Berkeley Street", "length_ft": 30.0, "area_sqft": 644.0, "pci": 67.4, "pci_label": "Fair", "elev_min": null, "elev_mean": null, "lidar_coverage": 0.0 }, "geometry": { "type": "LineString", "coordinates": [ [ -71.099728, 42.385553 ], [ -71.099828, 42.385588 ] ] } },
{ "type": "Feature", "properties": { "inspect_id": "IA17247", "client_seg": "3e79af1af7a25e398e974d415651af29", "street": "School Street", "length_ft": 30.0, "area_sqft": 731.0, "pci": 85.0, "pci_label": "Satisfactory", "elev_min": null, "elev_mean": null, "lidar_coverage": 0.0 }, "geometry": { "type": "LineString", "coordinates": [ [ -71.099545840711855, 42.385638315753177 ], [ -71.099592, 42.38557 ] ] } },
{ "type": "Feature", "properties": { "inspect_id": "IA17218", "client_seg": "8e3b15c10efa7419ed4c5b86fff60d6e", "street": "Berkeley Street", "length_ft": 30.0, "area_sqft": 726.0, "pci": 90.0, "pci_label": "Good", "elev_min": null, "elev_mean": null, "lidar_coverage": 0.0 }, "geometry": { "type": "LineString", "coordinates": [ [ -71.099828, 42.385588 ], [ -71.099928, 42.385624 ] ] } },
{ "type": "Feature", "properties": { "inspect_id": "IA11178", "client_seg": "dcf2db5324e53079531555888fdd10f2", "street": "Avon Street", "length_ft": 30.0, "area_sqft": 487.0, "pci": 93.0, "pci_label": "Good", "elev_min": -16.570901870727539, "elev_mean": -16.472901153564454, "lidar_coverage": 1.0 }, "geometry": { "type": "LineString", "coordinates": [ [ -71.101214, 42.385337 ], [ -71.101175, 42.385323 ], [ -71.101114, 42.385301 ] ] } },
{ "type": "Feature", "properties": { "inspect_id": "IA11177", "client_seg": "dcf2db5324e53079531555888fdd10f2", "street": "Avon Street", "length_ft": 30.0, "area_sqft": 496.0, "pci": 94.461194812870801, "pci_label": "Good", "elev_min": -16.36090087890625, "elev_mean": -16.190900802612305, "lidar_coverage": 1.0 }, "geometry": { "type": "LineString", "coordinates": [ [ -71.101313, 42.385374 ], [ -71.101214, 42.385337 ] ] } },
{ "type": "Feature", "properties": { "inspect_id": "IA17223", "client_seg": "8e3b15c10efa7419ed4c5b86fff60d6e", "street": "Berkeley Street", "length_ft": 30.0, "area_sqft": 677.0, "pci": 90.0, "pci_label": "Good", "elev_min": null, "elev_mean": null, "lidar_coverage": 0.0 }, "geometry": { "type": "LineString", "coordinates": [ [ -71.10033, 42.385764 ], [ -71.10043, 42.3858 ] ] } },
{ "type": "Feature", "properties": { "inspect_id": "IA17224", "client_seg": "8e3b15c10efa7419ed4c5b86fff60d6e", "street": "Berkeley Street", "length_ft": 30.0, "area_sqft": 707.0, "pci": 94.394508039550402, "pci_label": "Good", "elev_min": null, "elev_mean": null, "lidar_coverage": 0.0 }, "geometry": { "type": "LineString", "coordinates": [ [ -71.10043, 42.3858 ], [ -71.100531, 42.385835 ] ] } },
{ "type": "Feature", "properties": { "inspect_id": "IA17225", "client_seg": "8e3b15c10efa7419ed4c5b86fff60d6e", "street": "Berkeley Street", "length_ft": 30.0, "area_sqft": 751.0, "pci": 94.015046314393203, "pci_label": "Good", "elev_min": null, "elev_mean": null, "lidar_coverage": 0.0 }, "geometry": { "type": "LineString", "coordinates": [ [ -71.100531, 42.385835 ], [ -71.100631, 42.38587 ] ] } },
{ "type": "Feature", "properties": { "inspect_id": "IA17226", "client_seg": "8e3b15c10efa7419ed4c5b86fff60d6e", "street": "Berkeley Street", "length_ft": 30.0, "area_sqft": 719.0, "pci": 94.706097632678095, "pci_label": "Good", "elev_min": null, "elev_mean": null, "lidar_coverage": 0.0 }, "geometry": { "type": "LineString", "coordinates": [ [ -71.100631, 42.38587 ], [ -71.100732, 42.385905 ] ] } },
{ "type": "Feature", "properties": { "inspect_id": "IA17227", "client_seg": "8e3b15c10efa7419ed4c5b86fff60d6e", "street": "Berkeley Street", "length_ft": 30.0, "area_sqft": 801.0, "pci": 93.0, "pci_label": "Good", "elev_min": null, "elev_mean": null, "lidar_coverage": 0.0 }, "geometry": { "type": "LineString", "coordinates": [ [ -71.100732, 42.385905 ], [ -71.100832, 42.38594 ] ] } },
{ "type": "Feature", "properties": { "inspect_id": "IA17228", "client_seg": "8e3b15c10efa7419ed4c5b86fff60d6e", "street": "Berkeley Street", "length_ft": 30.0, "area_sqft": 670.0, "pci": 96.586788021766097, "pci_label": "Good", "elev_min": null, "elev_mean": null, "lidar_coverage": 0.0 }, "geometry": { "type": "LineString", "coordinates": [ [ -71.100832, 42.38594 ], [ -71.100932, 42.385976 ] ] } },
{ "type": "Feature", "properties": { "inspect_id": "IA17229", "client_seg": "8e3b15c10efa7419ed4c5b86fff60d6e", "street": "Berkeley Street", "length_ft": 30.0, "area_sqft": 785.0, "pci": 95.0570816563569, "pci_label": "Good", "elev_min": null, "elev_mean": null, "lidar_coverage": 0.0 }, "geometry": { "type": "LineString", "coordinates": [ [ -71.100932, 42.385976 ], [ -71.101013, 42.386004 ], [ -71.101033, 42.386011 ] ] } },
{ "type": "Feature", "properties": { "inspect_id": "IA17230", "client_seg": "8e3b15c10efa7419ed4c5b86fff60d6e", "street": "Berkeley Street", "length_ft": 30.0, "area_sqft": 792.0, "pci": 83.0, "pci_label": "Satisfactory", "elev_min": null, "elev_mean": null, "lidar_coverage": 0.0 }, "geometry": { "type": "LineString", "coordinates": [ [ -71.101033, 42.386011 ], [ -71.101133, 42.386046 ] ] } },
{ "type": "Feature", "properties": { "inspect_id": "IA11176", "client_seg": "dcf2db5324e53079531555888fdd10f2", "street": "Avon Street", "length_ft": 30.0, "area_sqft": 1181.0, "pci": 93.0, "pci_label": "Good", "elev_min": -16.080900192260742, "elev_mean": -15.83690071105957, "lidar_coverage": 1.0 }, "geometry": { "type": "LineString", "coordinates": [ [ -71.101413, 42.385411 ], [ -71.101313, 42.385374 ] ] } },
{ "type": "Feature", "properties": { "inspect_id": "IA11175", "client_seg": "dcf2db5324e53079531555888fdd10f2", "street": "Avon Street", "length_ft": 30.0, "area_sqft": 1181.0, "pci": 96.004449337162299, "pci_label": "Good", "elev_min": -15.540901184082031, "elev_mean": -15.446900939941406, "lidar_coverage": 1.0 }, "geometry": { "type": "LineString", "coordinates": [ [ -71.101512, 42.385447 ], [ -71.101413, 42.385411 ] ] } },
{ "type": "Feature", "properties": { "inspect_id": "IA11174", "client_seg": "dcf2db5324e53079531555888fdd10f2", "street": "Avon Street", "length_ft": 30.0, "area_sqft": 1181.0, "pci": 96.184885186225401, "pci_label": "Good", "elev_min": -15.490900993347168, "elev_mean": -15.232900810241699, "lidar_coverage": 1.0 }, "geometry": { "type": "LineString", "coordinates": [ [ -71.101612, 42.385484 ], [ -71.101512, 42.385447 ] ] } },
{ "type": "Feature", "properties": { "inspect_id": "IA11173", "client_seg": "dcf2db5324e53079531555888fdd10f2", "street": "Avon Street", "length_ft": 30.0, "area_sqft": 1181.0, "pci": 96.057637741917205, "pci_label": "Good", "elev_min": -15.060900688171387, "elev_mean": -14.766900825500489, "lidar_coverage": 1.0 }, "geometry": { "type": "LineString", "coordinates": [ [ -71.101711, 42.385521 ], [ -71.101612, 42.385484 ] ] } },
{ "type": "Feature", "properties": { "inspect_id": "IA11172", "client_seg": "dcf2db5324e53079531555888fdd10f2", "street": "Avon Street", "length_ft": 30.0, "area_sqft": 475.0, "pci": 93.0, "pci_label": "Good", "elev_min": -14.470900535583496, "elev_mean": -14.306900787353516, "lidar_coverage": 1.0 }, "geometry": { "type": "LineString", "coordinates": [ [ -71.10181, 42.385557 ], [ -71.101711, 42.385521 ] ] } },
{ "type": "Feature", "properties": { "inspect_id": "IA11171", "client_seg": "dcf2db5324e53079531555888fdd10f2", "street": "Avon Street", "length_ft": 30.0, "area_sqft": 515.0, "pci": 93.0, "pci_label": "Good", "elev_min": -13.990900993347168, "elev_mean": -13.736900901794433, "lidar_coverage": 1.0 }, "geometry": { "type": "LineString", "coordinates": [ [ -71.10191, 42.385594 ], [ -71.10181, 42.385557 ] ] } },
{ "type": "Feature", "properties": { "inspect_id": "IA11170", "client_seg": "dcf2db5324e53079531555888fdd10f2", "street": "Avon Street", "length_ft": 30.0, "area_sqft": 495.0, "pci": 88.0, "pci_label": "Good", "elev_min": -13.560900688171387, "elev_mean": -13.168901062011718, "lidar_coverage": 1.0 }, "geometry": { "type": "LineString", "coordinates": [ [ -71.102009, 42.385631 ], [ -71.10191, 42.385594 ] ] } },
{ "type": "Feature", "properties": { "inspect_id": "IA11169", "client_seg": "dcf2db5324e53079531555888fdd10f2", "street": "Avon Street", "length_ft": 30.0, "area_sqft": 571.0, "pci": 93.089470617317602, "pci_label": "Good", "elev_min": -12.840901374816895, "elev_mean": -12.516901016235352, "lidar_coverage": 1.0 }, "geometry": { "type": "LineString", "coordinates": [ [ -71.102109, 42.385668 ], [ -71.102009, 42.385631 ] ] } },
{ "type": "Feature", "properties": { "inspect_id": "IA17233", "client_seg": "8e3b15c10efa7419ed4c5b86fff60d6e", "street": "Berkeley Street", "length_ft": 30.0, "area_sqft": 816.0, "pci": 85.501335405735205, "pci_label": "Good", "elev_min": null, "elev_mean": null, "lidar_coverage": 0.0 }, "geometry": { "type": "LineString", "coordinates": [ [ -71.101333, 42.386118 ], [ -71.101433, 42.386153 ] ] } },
{ "type": "Feature", "properties": { "inspect_id": "IA17234", "client_seg": "8e3b15c10efa7419ed4c5b86fff60d6e", "street": "Berkeley Street", "length_ft": 30.0, "area_sqft": 806.0, "pci": 83.172105461340095, "pci_label": "Satisfactory", "elev_min": null, "elev_mean": null, "lidar_coverage": 0.0 }, "geometry": { "type": "LineString", "coordinates": [ [ -71.101433, 42.386153 ], [ -71.101533, 42.386189 ] ] } },
{ "type": "Feature", "properties": { "inspect_id": "IA02209", "client_seg": "38359a4743707dfe5b7326c92934c144", "street": "Laurel Street", "length_ft": 30.0, "area_sqft": 481.0, "pci": 71.6, "pci_label": "Satisfactory", "elev_min": null, "elev_mean": null, "lidar_coverage": 0.0 }, "geometry": { "type": "LineString", "coordinates": [ [ -71.103917, 42.385171 ], [ -71.103944, 42.385133 ], [ -71.103968, 42.385098 ] ] } },
{ "type": "Feature", "properties": { "inspect_id": "IA02187", "client_seg": "f1f52c4c8a7e1cd6b671be648adfc11b", "street": "Summer Street", "length_ft": 30.0, "area_sqft": 808.0, "pci": 95.111008290037702, "pci_label": "Good", "elev_min": null, "elev_mean": null, "lidar_coverage": 0.0 }, "geometry": { "type": "LineString", "coordinates": [ [ -71.104016, 42.385655 ], [ -71.103915, 42.385621 ] ] } },
{ "type": "Feature", "properties": { "inspect_id": "IA02186", "client_seg": "f1f52c4c8a7e1cd6b671be648adfc11b", "street": "Summer Street", "length_ft": 30.0, "area_sqft": 748.0, "pci": 95.021041695426206, "pci_label": "Good", "elev_min": null, "elev_mean": null, "lidar_coverage": 0.0 }, "geometry": { "type": "LineString", "coordinates": [ [ -71.104117, 42.385689 ], [ -71.104016, 42.385655 ] ] } },
{ "type": "Feature", "properties": { "inspect_id": "IA02185", "client_seg": "f1f52c4c8a7e1cd6b671be648adfc11b", "street": "Summer Street", "length_ft": 30.0, "area_sqft": 871.0, "pci": 93.0, "pci_label": "Good", "elev_min": null, "elev_mean": null, "lidar_coverage": 0.0 }, "geometry": { "type": "LineString", "coordinates": [ [ -71.104218, 42.385724 ], [ -71.104117, 42.385689 ] ] } },
{ "type": "Feature", "properties": { "inspect_id": "IA02203", "client_seg": "6b2c095b8ddcc2d0e66a226d3a5dafd7", "street": "Summer Street", "length_ft": 18.0, "area_sqft": 342.0, "pci": 95.0570816563569, "pci_label": "Good", "elev_min": null, "elev_mean": null, "lidar_coverage": 0.0 }, "geometry": { "type": "LineString", "coordinates": [ [ -71.103051, 42.385324 ], [ -71.102992, 42.385303 ] ] } },
{ "type": "Feature", "properties": { "inspect_id": "IA11168", "client_seg": "dcf2db5324e53079531555888fdd10f2", "street": "Avon Street", "length_ft": 30.0, "area_sqft": 564.0, "pci": 93.0, "pci_label": "Good", "elev_min": -12.180900573730469, "elev_mean": -11.904900932312012, "lidar_coverage": 1.0 }, "geometry": { "type": "LineString", "coordinates": [ [ -71.102209, 42.385703 ], [ -71.102164, 42.385688 ], [ -71.102109, 42.385668 ] ] } },
{ "type": "Feature", "properties": { "inspect_id": "IA11167", "client_seg": "dcf2db5324e53079531555888fdd10f2", "street": "Avon Street", "length_ft": 30.0, "area_sqft": 512.0, "pci": 91.0, "pci_label": "Good", "elev_min": -11.620901107788086, "elev_mean": -11.228901100158691, "lidar_coverage": 1.0 }, "geometry": { "type": "LineString", "coordinates": [ [ -71.102309, 42.385738 ], [ -71.102209, 42.385703 ] ] } },
{ "type": "Feature", "properties": { "inspect_id": "IA11166", "client_seg": "dcf2db5324e53079531555888fdd10f2", "street": "Avon Street", "length_ft": 30.0, "area_sqft": 557.0, "pci": 93.0, "pci_label": "Good", "elev_min": -10.980900764465332, "elev_mean": -10.734900856018067, "lidar_coverage": 1.0 }, "geometry": { "type": "LineString", "coordinates": [ [ -71.10241, 42.385773 ], [ -71.102309, 42.385738 ] ] } },
{ "type": "Feature", "properties": { "inspect_id": "IA11165", "client_seg": "dcf2db5324e53079531555888fdd10f2", "street": "Avon Street", "length_ft": 30.0, "area_sqft": 1181.0, "pci": 96.232821931416595, "pci_label": "Good", "elev_min": -10.470900535583496, "elev_mean": -10.132900810241699, "lidar_coverage": 1.0 }, "geometry": { "type": "LineString", "coordinates": [ [ -71.102511, 42.385807 ], [ -71.10241, 42.385773 ] ] } },
{ "type": "Feature", "properties": { "inspect_id": "IA11164", "client_seg": "dcf2db5324e53079531555888fdd10f2", "street": "Avon Street", "length_ft": 30.0, "area_sqft": 1181.0, "pci": 96.213367845169998, "pci_label": "Good", "elev_min": -9.6809005737304688, "elev_mean": -9.5929006576538089, "lidar_coverage": 1.0 }, "geometry": { "type": "LineString", "coordinates": [ [ -71.102611, 42.385842 ], [ -71.102511, 42.385807 ] ] } },
{ "type": "Feature", "properties": { "inspect_id": "IA11163", "client_seg": "dcf2db5324e53079531555888fdd10f2", "street": "Avon Street", "length_ft": 30.0, "area_sqft": 1181.0, "pci": 96.252780584882004, "pci_label": "Good", "elev_min": -9.6809005737304688, "elev_mean": -9.4869007110595707, "lidar_coverage": 1.0 }, "geometry": { "type": "LineString", "coordinates": [ [ -71.102712, 42.385877 ], [ -71.102611, 42.385842 ] ] } },
{ "type": "Feature", "properties": { "inspect_id": "IA11162", "client_seg": "dcf2db5324e53079531555888fdd10f2", "street": "Avon Street", "length_ft": 30.0, "area_sqft": 1181.0, "pci": 96.758860015761201, "pci_label": "Good", "elev_min": -9.1809005737304688, "elev_mean": -9.1109010696411126, "lidar_coverage": 1.0 }, "geometry": { "type": "LineString", "coordinates": [ [ -71.102813, 42.385911 ], [ -71.102712, 42.385877 ] ] } },
{ "type": "Feature", "properties": { "inspect_id": "IA11161", "client_seg": "dcf2db5324e53079531555888fdd10f2", "street": "Avon Street", "length_ft": 30.0, "area_sqft": 1181.0, "pci": 96.794753151865805, "pci_label": "Good", "elev_min": -9.0509014129638672, "elev_mean": -9.0069009780883782, "lidar_coverage": 1.0 }, "geometry": { "type": "LineString", "coordinates": [ [ -71.102914, 42.385946 ], [ -71.102813, 42.385911 ] ] } },
{ "type": "Feature", "properties": { "inspect_id": "IA11160", "client_seg": "dcf2db5324e53079531555888fdd10f2", "street": "Avon Street", "length_ft": 30.0, "area_sqft": 488.0, "pci": 93.0, "pci_label": "Good", "elev_min": -9.0609006881713867, "elev_mean": -9.0249010086059567, "lidar_coverage": 1.0 }, "geometry": { "type": "LineString", "coordinates": [ [ -71.103014, 42.385982 ], [ -71.102948, 42.385958 ], [ -71.102914, 42.385946 ] ] } },
{ "type": "Feature", "properties": { "inspect_id": "IA02205", "client_seg": "38359a4743707dfe5b7326c92934c144", "street": "Laurel Street", "length_ft": 30.0, "area_sqft": 1181.0, "pci": 80.0, "pci_label": "Satisfactory", "elev_min": null, "elev_mean": null, "lidar_coverage": 0.0 }, "geometry": { "type": "LineString", "coordinates": [ [ -71.103706, 42.385461 ], [ -71.103759, 42.385388 ] ] } },
{ "type": "Feature", "properties": { "inspect_id": "IA02199", "client_seg": "6b2c095b8ddcc2d0e66a226d3a5dafd7", "street": "Summer Street", "length_ft": 30.0, "area_sqft": 621.0, "pci": 94.269639502546795, "pci_label": "Good", "elev_min": null, "elev_mean": null, "lidar_coverage": 0.0 }, "geometry": { "type": "LineString", "coordinates": [ [ -71.103453, 42.385464 ], [ -71.103352, 42.385429 ] ] } },
{ "type": "Feature", "properties": { "inspect_id": "IA02198", "client_seg": "6b2c095b8ddcc2d0e66a226d3a5dafd7", "street": "Summer Street", "length_ft": 30.0, "area_sqft": 619.0, "pci": 86.0, "pci_label": "Good", "elev_min": null, "elev_mean": null, "lidar_coverage": 0.0 }, "geometry": { "type": "LineString", "coordinates": [ [ -71.103553, 42.385499 ], [ -71.103453, 42.385464 ] ] } },
{ "type": "Feature", "properties": { "inspect_id": "IA02204", "client_seg": "38359a4743707dfe5b7326c92934c144", "street": "Laurel Street", "length_ft": 30.0, "area_sqft": 1181.0, "pci": 84.3, "pci_label": "Satisfactory", "elev_min": null, "elev_mean": null, "lidar_coverage": 0.0 }, "geometry": { "type": "LineString", "coordinates": [ [ -71.103654, 42.385534 ], [ -71.1037, 42.385469 ], [ -71.103706, 42.385461 ] ] } },
{ "type": "Feature", "properties": { "inspect_id": "IA02197", "client_seg": "6b2c095b8ddcc2d0e66a226d3a5dafd7", "street": "Summer Street", "length_ft": 30.0, "area_sqft": 965.0, "pci": 85.544664644989496, "pci_label": "Good", "elev_min": null, "elev_mean": null, "lidar_coverage": 0.0 }, "geometry": { "type": "LineString", "coordinates": [ [ -71.103654, 42.385534 ], [ -71.103553, 42.385499 ] ] } },
{ "type": "Feature", "properties": { "inspect_id": "IA02190", "client_seg": "f1f52c4c8a7e1cd6b671be648adfc11b", "street": "Summer Street", "length_ft": 17.0, "area_sqft": 467.0, "pci": 88.0, "pci_label": "Good", "elev_min": null, "elev_mean": null, "lidar_coverage": 0.0 }, "geometry": { "type": "LineString", "coordinates": [ [ -71.103712, 42.385553 ], [ -71.103654, 42.385534 ] ] } },
{ "type": "Feature", "properties": { "inspect_id": "IA02189", "client_seg": "f1f52c4c8a7e1cd6b671be648adfc11b", "street": "Summer Street", "length_ft": 30.0, "area_sqft": 870.0, "pci": 91.0, "pci_label": "Good", "elev_min": null, "elev_mean": null, "lidar_coverage": 0.0 }, "geometry": { "type": "LineString", "coordinates": [ [ -71.103814, 42.385587 ], [ -71.103712, 42.385553 ] ] } },
{ "type": "Feature", "properties": { "inspect_id": "IA02188", "client_seg": "f1f52c4c8a7e1cd6b671be648adfc11b", "street": "Summer Street", "length_ft": 30.0, "area_sqft": 868.0, "pci": 95.130592804376207, "pci_label": "Good", "elev_min": null, "elev_mean": null, "lidar_coverage": 0.0 }, "geometry": { "type": "LineString", "coordinates": [ [ -71.103915, 42.385621 ], [ -71.103814, 42.385587 ] ] } },
{ "type": "Feature", "properties": { "inspect_id": "IA11159", "client_seg": "dcf2db5324e53079531555888fdd10f2", "street": "Avon Street", "length_ft": 30.0, "area_sqft": 1181.0, "pci": 93.0, "pci_label": "Good", "elev_min": -8.990900993347168, "elev_mean": -8.8629011154174808, "lidar_coverage": 1.0 }, "geometry": { "type": "LineString", "coordinates": [ [ -71.103113, 42.386018 ], [ -71.103014, 42.385982 ] ] } },
{ "type": "Feature", "properties": { "inspect_id": "IA11158", "client_seg": "dcf2db5324e53079531555888fdd10f2", "street": "Avon Street", "length_ft": 30.0, "area_sqft": 1181.0, "pci": 97.154410291881604, "pci_label": "Good", "elev_min": -8.9109010696411133, "elev_mean": -8.8309011459350586, "lidar_coverage": 1.0 }, "geometry": { "type": "LineString", "coordinates": [ [ -71.103213, 42.386054 ], [ -71.103113, 42.386018 ] ] } },
{ "type": "Feature", "properties": { "inspect_id": "IA02184", "client_seg": "f1f52c4c8a7e1cd6b671be648adfc11b", "street": "Summer Street", "length_ft": 30.0, "area_sqft": 1075.0, "pci": 86.752004499351401, "pci_label": "Good", "elev_min": null, "elev_mean": null, "lidar_coverage": 0.0 }, "geometry": { "type": "LineString", "coordinates": [ [ -71.104275123791325, 42.385743229806778 ], [ -71.104218, 42.385724 ] ] } },
{ "type": "Feature", "properties": { "inspect_id": "IA11150", "client_seg": "dcf2db5324e53079531555888fdd10f2", "street": "Avon Street", "length_ft": 30.0, "area_sqft": 1181.0, "pci": 95.401101675527201, "pci_label": "Good", "elev_min": -8.490900993347168, "elev_mean": -8.4119009971618652, "lidar_coverage": 1.0 }, "geometry": { "type": "LineString", "coordinates": [ [ -71.104009, 42.386346 ], [ -71.103911, 42.386309 ] ] } },
{ "type": "Feature", "properties": { "inspect_id": "IA11149", "client_seg": "dcf2db5324e53079531555888fdd10f2", "street": "Avon Street", "length_ft": 30.0, "area_sqft": 510.0, "pci": 92.0, "pci_label": "Good", "elev_min": -8.305901050567627, "elev_mean": -8.2384011745452881, "lidar_coverage": 0.4 }, "geometry": { "type": "LineString", "coordinates": [ [ -71.104108, 42.386384 ], [ -71.104009, 42.386346 ] ] } },
{ "type": "Feature", "properties": { "inspect_id": "IA11148", "client_seg": "dcf2db5324e53079531555888fdd10f2", "street": "Avon Street", "length_ft": 30.0, "area_sqft": 1181.0, "pci": 98.449205856184506, "pci_label": "Good", "elev_min": null, "elev_mean": null, "lidar_coverage": 0.0 }, "geometry": { "type": "LineString", "coordinates": [ [ -71.104207, 42.386421 ], [ -71.104108, 42.386384 ] ] } },
{ "type": "Feature", "properties": { "inspect_id": "IA11147", "client_seg": "dcf2db5324e53079531555888fdd10f2", "street": "Avon Street", "length_ft": 30.0, "area_sqft": 620.0, "pci": 89.0, "pci_label": "Good", "elev_min": null, "elev_mean": null, "lidar_coverage": 0.0 }, "geometry": { "type": "LineString", "coordinates": [ [ -71.104298948749047, 42.386456293463638 ], [ -71.104207, 42.386421 ] ] } },
{ "type": "Feature", "properties": { "inspect_id": "IA11157", "client_seg": "dcf2db5324e53079531555888fdd10f2", "street": "Avon Street", "length_ft": 30.0, "area_sqft": 1181.0, "pci": 95.877399056906896, "pci_label": "Good", "elev_min": -8.990900993347168, "elev_mean": -8.9409009933471673, "lidar_coverage": 1.0 }, "geometry": { "type": "LineString", "coordinates": [ [ -71.103313, 42.386091 ], [ -71.103213, 42.386054 ] ] } },
{ "type": "Feature", "properties": { "inspect_id": "IA11156", "client_seg": "dcf2db5324e53079531555888fdd10f2", "street": "Avon Street", "length_ft": 30.0, "area_sqft": 473.0, "pci": 93.0, "pci_label": "Good", "elev_min": -8.9209012985229492, "elev_mean": -8.8789012908935554, "lidar_coverage": 1.0 }, "geometry": { "type": "LineString", "coordinates": [ [ -71.103412, 42.386127 ], [ -71.103313, 42.386091 ] ] } },
{ "type": "Feature", "properties": { "inspect_id": "IA11155", "client_seg": "dcf2db5324e53079531555888fdd10f2", "street": "Avon Street", "length_ft": 30.0, "area_sqft": 1181.0, "pci": 94.0, "pci_label": "Good", "elev_min": -8.8809013366699219, "elev_mean": -8.7769010543823249, "lidar_coverage": 1.0 }, "geometry": { "type": "LineString", "coordinates": [ [ -71.103512, 42.386163 ], [ -71.103412, 42.386127 ] ] } },
{ "type": "Feature", "properties": { "inspect_id": "IA11154", "client_seg": "dcf2db5324e53079531555888fdd10f2", "street": "Avon Street", "length_ft": 30.0, "area_sqft": 1181.0, "pci": 95.076113881366794, "pci_label": "Good", "elev_min": -8.7809009552001953, "elev_mean": -8.6929010391235355, "lidar_coverage": 1.0 }, "geometry": { "type": "LineString", "coordinates": [ [ -71.103612, 42.3862 ], [ -71.103512, 42.386163 ] ] } },
{ "type": "Feature", "properties": { "inspect_id": "IA11153", "client_seg": "dcf2db5324e53079531555888fdd10f2", "street": "Avon Street", "length_ft": 30.0, "area_sqft": 1181.0, "pci": 96.202681554368198, "pci_label": "Good", "elev_min": -8.7509012222290039, "elev_mean": -8.674901008605957, "lidar_coverage": 1.0 }, "geometry": { "type": "LineString", "coordinates": [ [ -71.103711, 42.386236 ], [ -71.103612, 42.3862 ] ] } },
{ "type": "Feature", "properties": { "inspect_id": "IA11152", "client_seg": "dcf2db5324e53079531555888fdd10f2", "street": "Avon Street", "length_ft": 30.0, "area_sqft": 1181.0, "pci": 96.033485043742601, "pci_label": "Good", "elev_min": -8.6209011077880859, "elev_mean": -8.1701010704040531, "lidar_coverage": 1.0 }, "geometry": { "type": "LineString", "coordinates": [ [ -71.103811, 42.386272 ], [ -71.103711, 42.386236 ] ] } },
{ "type": "Feature", "properties": { "inspect_id": "IA11151", "client_seg": "dcf2db5324e53079531555888fdd10f2", "street": "Avon Street", "length_ft": 30.0, "area_sqft": 494.0, "pci": 92.0, "pci_label": "Good", "elev_min": -8.5809011459350586, "elev_mean": -8.4630010032653811, "lidar_coverage": 1.0 }, "geometry": { "type": "LineString", "coordinates": [ [ -71.103911, 42.386309 ], [ -71.103904, 42.386306 ], [ -71.103811, 42.386272 ] ] } },
{ "type": "Feature", "properties": { "inspect_id": "IA18694", "client_seg": "2698db1d0f0dbbc156e0d22299b665c8", "street": "Berkeley Street", "length_ft": 30.0, "area_sqft": 823.0, "pci": 94.219773988167404, "pci_label": "Good", "elev_min": null, "elev_mean": null, "lidar_coverage": 0.0 }, "geometry": { "type": "LineString", "coordinates": [ [ -71.103092, 42.386737 ], [ -71.103193, 42.386772 ] ] } },
{ "type": "Feature", "properties": { "inspect_id": "IA18695", "client_seg": "2698db1d0f0dbbc156e0d22299b665c8", "street": "Berkeley Street", "length_ft": 30.0, "area_sqft": 864.0, "pci": 95.0570816563569, "pci_label": "Good", "elev_min": null, "elev_mean": null, "lidar_coverage": 0.0 }, "geometry": { "type": "LineString", "coordinates": [ [ -71.103193, 42.386772 ], [ -71.103198933397223, 42.386774056131323 ] ] } },
{ "type": "Feature", "properties": { "inspect_id": "IA18685", "client_seg": "2698db1d0f0dbbc156e0d22299b665c8", "street": "Berkeley Street", "length_ft": 30.0, "area_sqft": 792.0, "pci": 80.0, "pci_label": "Satisfactory", "elev_min": null, "elev_mean": null, "lidar_coverage": 0.0 }, "geometry": { "type": "LineString", "coordinates": [ [ -71.102189, 42.386421 ], [ -71.102289, 42.386456 ] ] } },
{ "type": "Feature", "properties": { "inspect_id": "IA18686", "client_seg": "2698db1d0f0dbbc156e0d22299b665c8", "street": "Berkeley Street", "length_ft": 30.0, "area_sqft": 760.0, "pci": 92.0, "pci_label": "Good", "elev_min": null, "elev_mean": null, "lidar_coverage": 0.0 }, "geometry": { "type": "LineString", "coordinates": [ [ -71.102289, 42.386456 ], [ -71.102389, 42.386491 ] ] } },
{ "type": "Feature", "properties": { "inspect_id": "IA18687", "client_seg": "2698db1d0f0dbbc156e0d22299b665c8", "street": "Berkeley Street", "length_ft": 30.0, "area_sqft": 784.0, "pci": 84.0, "pci_label": "Satisfactory", "elev_min": null, "elev_mean": null, "lidar_coverage": 0.0 }, "geometry": { "type": "LineString", "coordinates": [ [ -71.102389, 42.386491 ], [ -71.10249, 42.386527 ] ] } },
{ "type": "Feature", "properties": { "inspect_id": "IA18688", "client_seg": "2698db1d0f0dbbc156e0d22299b665c8", "street": "Berkeley Street", "length_ft": 30.0, "area_sqft": 666.0, "pci": 80.8, "pci_label": "Satisfactory", "elev_min": null, "elev_mean": null, "lidar_coverage": 0.0 }, "geometry": { "type": "LineString", "coordinates": [ [ -71.10249, 42.386527 ], [ -71.10259, 42.386562 ] ] } },
{ "type": "Feature", "properties": { "inspect_id": "IA18689", "client_seg": "2698db1d0f0dbbc156e0d22299b665c8", "street": "Berkeley Street", "length_ft": 30.0, "area_sqft": 787.0, "pci": 92.0, "pci_label": "Good", "elev_min": null, "elev_mean": null, "lidar_coverage": 0.0 }, "geometry": { "type": "LineString", "coordinates": [ [ -71.10259, 42.386562 ], [ -71.102691, 42.386597 ] ] } },
{ "type": "Feature", "properties": { "inspect_id": "IA18690", "client_seg": "2698db1d0f0dbbc156e0d22299b665c8", "street": "Berkeley Street", "length_ft": 30.0, "area_sqft": 710.0, "pci": 73.0, "pci_label": "Satisfactory", "elev_min": null, "elev_mean": null, "lidar_coverage": 0.0 }, "geometry": { "type": "LineString", "coordinates": [ [ -71.102691, 42.386597 ], [ -71.102791, 42.386632 ] ] } },
{ "type": "Feature", "properties": { "inspect_id": "IA18691", "client_seg": "2698db1d0f0dbbc156e0d22299b665c8", "street": "Berkeley Street", "length_ft": 30.0, "area_sqft": 792.0, "pci": 94.874047721745598, "pci_label": "Good", "elev_min": null, "elev_mean": null, "lidar_coverage": 0.0 }, "geometry": { "type": "LineString", "coordinates": [ [ -71.102791, 42.386632 ], [ -71.102891, 42.386667 ] ] } },
{ "type": "Feature", "properties": { "inspect_id": "IA18692", "client_seg": "2698db1d0f0dbbc156e0d22299b665c8", "street": "Berkeley Street", "length_ft": 30.0, "area_sqft": 679.0, "pci": 94.8884373696485, "pci_label": "Good", "elev_min": null, "elev_mean": null, "lidar_coverage": 0.0 }, "geometry": { "type": "LineString", "coordinates": [ [ -71.102891, 42.386667 ], [ -71.102992, 42.386703 ] ] } },
{ "type": "Feature", "properties": { "inspect_id": "IA18693", "client_seg": "2698db1d0f0dbbc156e0d22299b665c8", "street": "Berkeley Street", "length_ft": 30.0, "area_sqft": 709.0, "pci": 95.0570816563569, "pci_label": "Good", "elev_min": null, "elev_mean": null, "lidar_coverage": 0.0 }, "geometry": { "type": "LineString", "coordinates": [ [ -71.102992, 42.386703 ], [ -71.103007, 42.386708 ], [ -71.103092, 42.386737 ] ] } },
{ "type": "Feature", "properties": { "inspect_id": "IA17219", "client_seg": "8e3b15c10efa7419ed4c5b86fff60d6e", "street": "Berkeley Street", "length_ft": 30.0, "area_sqft": 694.0, "pci": 81.0, "pci_label": "Satisfactory", "elev_min": null, "elev_mean": null, "lidar_coverage": 0.0 }, "geometry": { "type": "LineString", "coordinates": [ [ -71.099928, 42.385624 ], [ -71.100029, 42.385659 ] ] } },
{ "type": "Feature", "properties": { "inspect_id": "IA17220", "client_seg": "8e3b15c10efa7419ed4c5b86fff60d6e", "street": "Berkeley Street", "length_ft": 30.0, "area_sqft": 753.0, "pci": 84.0, "pci_label": "Satisfactory", "elev_min": null, "elev_mean": null, "lidar_coverage": 0.0 }, "geometry": { "type": "LineString", "coordinates": [ [ -71.100029, 42.385659 ], [ -71.100129, 42.385694 ] ] } },
{ "type": "Feature", "properties": { "inspect_id": "IA17221", "client_seg": "8e3b15c10efa7419ed4c5b86fff60d6e", "street": "Berkeley Street", "length_ft": 30.0, "area_sqft": 745.0, "pci": 92.0, "pci_label": "Good", "elev_min": null, "elev_mean": null, "lidar_coverage": 0.0 }, "geometry": { "type": "LineString", "coordinates": [ [ -71.100129, 42.385694 ], [ -71.10023, 42.385729 ] ] } },
{ "type": "Feature", "properties": { "inspect_id": "IA17222", "client_seg": "8e3b15c10efa7419ed4c5b86fff60d6e", "street": "Berkeley Street", "length_ft": 30.0, "area_sqft": 806.0, "pci": 78.0, "pci_label": "Satisfactory", "elev_min": null, "elev_mean": null, "lidar_coverage": 0.0 }, "geometry": { "type": "LineString", "coordinates": [ [ -71.10023, 42.385729 ], [ -71.10033, 42.385764 ] ] } },
{ "type": "Feature", "properties": { "inspect_id": "IA16980", "client_seg": "958134d0669a32cbeaeb0582a30e0ea8", "street": "Oxford Street", "length_ft": 30.0, "area_sqft": 540.0, "pci": 82.757037238139304, "pci_label": "Satisfactory", "elev_min": null, "elev_mean": null, "lidar_coverage": 0.0 }, "geometry": { "type": "LineString", "coordinates": [ [ -71.099567389582148, 42.386284715316627 ], [ -71.099592, 42.386293 ] ] } },
{ "type": "Feature", "properties": { "inspect_id": "IA16981", "client_seg": "958134d0669a32cbeaeb0582a30e0ea8", "street": "Oxford Street", "length_ft": 30.0, "area_sqft": 621.0, "pci": 93.0, "pci_label": "Good", "elev_min": null, "elev_mean": null, "lidar_coverage": 0.0 }, "geometry": { "type": "LineString", "coordinates": [ [ -71.099592, 42.386293 ], [ -71.099694, 42.386327 ] ] } },
{ "type": "Feature", "properties": { "inspect_id": "IA16982", "client_seg": "958134d0669a32cbeaeb0582a30e0ea8", "street": "Oxford Street", "length_ft": 30.0, "area_sqft": 695.0, "pci": 82.0, "pci_label": "Satisfactory", "elev_min": null, "elev_mean": null, "lidar_coverage": 0.0 }, "geometry": { "type": "LineString", "coordinates": [ [ -71.099694, 42.386327 ], [ -71.099795, 42.386361 ] ] } },
{ "type": "Feature", "properties": { "inspect_id": "IA17235", "client_seg": "8e3b15c10efa7419ed4c5b86fff60d6e", "street": "Berkeley Street", "length_ft": 30.0, "area_sqft": 830.0, "pci": 86.0, "pci_label": "Good", "elev_min": null, "elev_mean": null, "lidar_coverage": 0.0 }, "geometry": { "type": "LineString", "coordinates": [ [ -71.101533, 42.386189 ], [ -71.101633, 42.386225 ] ] } },
{ "type": "Feature", "properties": { "inspect_id": "IA17236", "client_seg": "8e3b15c10efa7419ed4c5b86fff60d6e", "street": "Berkeley Street", "length_ft": 30.0, "area_sqft": 848.0, "pci": 93.0, "pci_label": "Good", "elev_min": null, "elev_mean": null, "lidar_coverage": 0.0 }, "geometry": { "type": "LineString", "coordinates": [ [ -71.101633, 42.386225 ], [ -71.101733, 42.38626 ] ] } },
{ "type": "Feature", "properties": { "inspect_id": "IA17237", "client_seg": "8e3b15c10efa7419ed4c5b86fff60d6e", "street": "Berkeley Street", "length_ft": 30.0, "area_sqft": 737.0, "pci": 92.0, "pci_label": "Good", "elev_min": null, "elev_mean": null, "lidar_coverage": 0.0 }, "geometry": { "type": "LineString", "coordinates": [ [ -71.101733, 42.38626 ], [ -71.101834, 42.386296 ] ] } },
{ "type": "Feature", "properties": { "inspect_id": "IA17238", "client_seg": "8e3b15c10efa7419ed4c5b86fff60d6e", "street": "Berkeley Street", "length_ft": 30.0, "area_sqft": 669.0, "pci": 95.766465756208703, "pci_label": "Good", "elev_min": null, "elev_mean": null, "lidar_coverage": 0.0 }, "geometry": { "type": "LineString", "coordinates": [ [ -71.101834, 42.386296 ], [ -71.101934, 42.386331 ] ] } },
{ "type": "Feature", "properties": { "inspect_id": "IA17239", "client_seg": "8e3b15c10efa7419ed4c5b86fff60d6e", "street": "Berkeley Street", "length_ft": 16.0, "area_sqft": 509.0, "pci": 95.052791007398895, "pci_label": "Good", "elev_min": null, "elev_mean": null, "lidar_coverage": 0.0 }, "geometry": { "type": "LineString", "coordinates": [ [ -71.101934, 42.386331 ], [ -71.101988, 42.386351 ] ] } },
{ "type": "Feature", "properties": { "inspect_id": "IA18683", "client_seg": "2698db1d0f0dbbc156e0d22299b665c8", "street": "Berkeley Street", "length_ft": 30.0, "area_sqft": 888.0, "pci": 77.0, "pci_label": "Satisfactory", "elev_min": null, "elev_mean": null, "lidar_coverage": 0.0 }, "geometry": { "type": "LineString", "coordinates": [ [ -71.101988, 42.386351 ], [ -71.102088, 42.386386 ] ] } },
{ "type": "Feature", "properties": { "inspect_id": "IA18706", "client_seg": "eed4afd3ea22afe898d81bc600b8b1cd", "street": "Hersey Street", "length_ft": 30.0, "area_sqft": 1138.0, "pci": 73.0, "pci_label": "Satisfactory", "elev_min": null, "elev_mean": null, "lidar_coverage": 0.0 }, "geometry": { "type": "LineString", "coordinates": [ [ -71.101988, 42.386351 ], [ -71.101959, 42.386394 ], [ -71.101939, 42.386425 ] ] } },
{ "type": "Feature", "properties": { "inspect_id": "IA18684", "client_seg": "2698db1d0f0dbbc156e0d22299b665c8", "street": "Berkeley Street", "length_ft": 30.0, "area_sqft": 603.0, "pci": 95.691798578764207, "pci_label": "Good", "elev_min": null, "elev_mean": null, "lidar_coverage": 0.0 }, "geometry": { "type": "LineString", "coordinates": [ [ -71.102088, 42.386386 ], [ -71.102189, 42.386421 ] ] } },
{ "type": "Feature", "properties": { "inspect_id": "IA18707", "client_seg": "eed4afd3ea22afe898d81bc600b8b1cd", "street": "Hersey Street", "length_ft": 30.0, "area_sqft": 935.0, "pci": 82.2, "pci_label": "Satisfactory", "elev_min": null, "elev_mean": null, "lidar_coverage": 0.0 }, "geometry": { "type": "LineString", "coordinates": [ [ -71.101939, 42.386425 ], [ -71.10189, 42.386498 ] ] } },
{ "type": "Feature", "properties": { "inspect_id": "IA18708", "client_seg": "eed4afd3ea22afe898d81bc600b8b1cd", "street": "Hersey Street", "length_ft": 30.0, "area_sqft": 827.0, "pci": 77.0, "pci_label": "Satisfactory", "elev_min": null, "elev_mean": null, "lidar_coverage": 0.0 }, "geometry": { "type": "LineString", "coordinates": [ [ -71.10189, 42.386498 ], [ -71.101841, 42.386572 ] ] } },
{ "type": "Feature", "properties": { "inspect_id": "IA17231", "client_seg": "8e3b15c10efa7419ed4c5b86fff60d6e", "street": "Berkeley Street", "length_ft": 30.0, "area_sqft": 609.0, "pci": 85.739976047032897, "pci_label": "Good", "elev_min": null, "elev_mean": null, "lidar_coverage": 0.0 }, "geometry": { "type": "LineString", "coordinates": [ [ -71.101133, 42.386046 ], [ -71.101233, 42.386082 ] ] } },
{ "type": "Feature", "properties": { "inspect_id": "IA17232", "client_seg": "8e3b15c10efa7419ed4c5b86fff60d6e", "street": "Berkeley Street", "length_ft": 30.0, "area_sqft": 717.0, "pci": 97.480261966371501, "pci_label": "Good", "elev_min": null, "elev_mean": null, "lidar_coverage": 0.0 }, "geometry": { "type": "LineString", "coordinates": [ [ -71.101233, 42.386082 ], [ -71.101333, 42.386118 ] ] } },
{ "type": "Feature", "properties": { "inspect_id": "IA16988", "client_seg": "958134d0669a32cbeaeb0582a30e0ea8", "street": "Oxford Street", "length_ft": 30.0, "area_sqft": 678.0, "pci": 69.2, "pci_label": "Fair", "elev_min": null, "elev_mean": null, "lidar_coverage": 0.0 }, "geometry": { "type": "LineString", "coordinates": [ [ -71.100301, 42.38653 ], [ -71.1004, 42.386567 ] ] } },
{ "type": "Feature", "properties": { "inspect_id": "IA16989", "client_seg": "958134d0669a32cbeaeb0582a30e0ea8", "street": "Oxford Street", "length_ft": 30.0, "area_sqft": 569.0, "pci": 90.0, "pci_label": "Good", "elev_min": null, "elev_mean": null, "lidar_coverage": 0.0 }, "geometry": { "type": "LineString", "coordinates": [ [ -71.1004, 42.386567 ], [ -71.1005, 42.386603 ] ] } },
{ "type": "Feature", "properties": { "inspect_id": "IA16990", "client_seg": "958134d0669a32cbeaeb0582a30e0ea8", "street": "Oxford Street", "length_ft": 30.0, "area_sqft": 619.0, "pci": 95.0570816563569, "pci_label": "Good", "elev_min": null, "elev_mean": null, "lidar_coverage": 0.0 }, "geometry": { "type": "LineString", "coordinates": [ [ -71.1005, 42.386603 ], [ -71.1006, 42.386639 ] ] } },
{ "type": "Feature", "properties": { "inspect_id": "IA16991", "client_seg": "958134d0669a32cbeaeb0582a30e0ea8", "street": "Oxford Street", "length_ft": 30.0, "area_sqft": 684.0, "pci": 95.0570816563569, "pci_label": "Good", "elev_min": null, "elev_mean": null, "lidar_coverage": 0.0 }, "geometry": { "type": "LineString", "coordinates": [ [ -71.1006, 42.386639 ], [ -71.100699, 42.386676 ] ] } },
{ "type": "Feature", "properties": { "inspect_id": "IA16992", "client_seg": "958134d0669a32cbeaeb0582a30e0ea8", "street": "Oxford Street", "length_ft": 30.0, "area_sqft": 638.0, "pci": 95.033406256706698, "pci_label": "Good", "elev_min": null, "elev_mean": null, "lidar_coverage": 0.0 }, "geometry": { "type": "LineString", "coordinates": [ [ -71.100699, 42.386676 ], [ -71.100799, 42.386712 ] ] } },
{ "type": "Feature", "properties": { "inspect_id": "IA16993", "client_seg": "958134d0669a32cbeaeb0582a30e0ea8", "street": "Oxford Street", "length_ft": 30.0, "area_sqft": 585.0, "pci": 99.8313557132916, "pci_label": "Good", "elev_min": null, "elev_mean": null, "lidar_coverage": 0.0 }, "geometry": { "type": "LineString", "coordinates": [ [ -71.100799, 42.386712 ], [ -71.100898, 42.386749 ] ] } },
{ "type": "Feature", "properties": { "inspect_id": "IA16994", "client_seg": "958134d0669a32cbeaeb0582a30e0ea8", "street": "Oxford Street", "length_ft": 30.0, "area_sqft": 598.0, "pci": 93.0, "pci_label": "Good", "elev_min": null, "elev_mean": null, "lidar_coverage": 0.0 }, "geometry": { "type": "LineString", "coordinates": [ [ -71.100898, 42.386749 ], [ -71.100998, 42.386785 ] ] } },
{ "type": "Feature", "properties": { "inspect_id": "IA16995", "client_seg": "958134d0669a32cbeaeb0582a30e0ea8", "street": "Oxford Street", "length_ft": 30.0, "area_sqft": 661.0, "pci": 95.0570816563569, "pci_label": "Good", "elev_min": null, "elev_mean": null, "lidar_coverage": 0.0 }, "geometry": { "type": "LineString", "coordinates": [ [ -71.100998, 42.386785 ], [ -71.101075785287449, 42.386813002714717 ] ] } },
{ "type": "Feature", "properties": { "inspect_id": "IA16983", "client_seg": "958134d0669a32cbeaeb0582a30e0ea8", "street": "Oxford Street", "length_ft": 30.0, "area_sqft": 716.0, "pci": 94.888437094686395, "pci_label": "Good", "elev_min": null, "elev_mean": null, "lidar_coverage": 0.0 }, "geometry": { "type": "LineString", "coordinates": [ [ -71.099795, 42.386361 ], [ -71.099896, 42.386395 ] ] } },
{ "type": "Feature", "properties": { "inspect_id": "IA16984", "client_seg": "958134d0669a32cbeaeb0582a30e0ea8", "street": "Oxford Street", "length_ft": 30.0, "area_sqft": 716.0, "pci": 93.0, "pci_label": "Good", "elev_min": null, "elev_mean": null, "lidar_coverage": 0.0 }, "geometry": { "type": "LineString", "coordinates": [ [ -71.099896, 42.386395 ], [ -71.099997, 42.386428 ] ] } },
{ "type": "Feature", "properties": { "inspect_id": "IA16985", "client_seg": "958134d0669a32cbeaeb0582a30e0ea8", "street": "Oxford Street", "length_ft": 30.0, "area_sqft": 584.0, "pci": 95.033469297195197, "pci_label": "Good", "elev_min": null, "elev_mean": null, "lidar_coverage": 0.0 }, "geometry": { "type": "LineString", "coordinates": [ [ -71.099997, 42.386428 ], [ -71.100099, 42.386462 ] ] } },
{ "type": "Feature", "properties": { "inspect_id": "IA16986", "client_seg": "958134d0669a32cbeaeb0582a30e0ea8", "street": "Oxford Street", "length_ft": 30.0, "area_sqft": 656.0, "pci": 100.0, "pci_label": "Good", "elev_min": null, "elev_mean": null, "lidar_coverage": 0.0 }, "geometry": { "type": "LineString", "coordinates": [ [ -71.100099, 42.386462 ], [ -71.1002, 42.386496 ] ] } },
{ "type": "Feature", "properties": { "inspect_id": "IA16987", "client_seg": "958134d0669a32cbeaeb0582a30e0ea8", "street": "Oxford Street", "length_ft": 30.0, "area_sqft": 787.0, "pci": 84.0, "pci_label": "Satisfactory", "elev_min": null, "elev_mean": null, "lidar_coverage": 0.0 }, "geometry": { "type": "LineString", "coordinates": [ [ -71.1002, 42.386496 ], [ -71.100281, 42.386523 ], [ -71.100301, 42.38653 ] ] } },
{ "type": "Feature", "properties": { "inspect_id": "IA18709", "client_seg": "eed4afd3ea22afe898d81bc600b8b1cd", "street": "Hersey Street", "length_ft": 30.0, "area_sqft": 714.0, "pci": 72.0, "pci_label": "Satisfactory", "elev_min": null, "elev_mean": null, "lidar_coverage": 0.0 }, "geometry": { "type": "LineString", "coordinates": [ [ -71.101841, 42.386572 ], [ -71.101792, 42.386646 ] ] } },
{ "type": "Feature", "properties": { "inspect_id": "IA18710", "client_seg": "eed4afd3ea22afe898d81bc600b8b1cd", "street": "Hersey Street", "length_ft": 30.0, "area_sqft": 927.0, "pci": 91.0, "pci_label": "Good", "elev_min": null, "elev_mean": null, "lidar_coverage": 0.0 }, "geometry": { "type": "LineString", "coordinates": [ [ -71.101792, 42.386646 ], [ -71.101743, 42.38672 ] ] } },
{ "type": "Feature", "properties": { "inspect_id": "IA18711", "client_seg": "eed4afd3ea22afe898d81bc600b8b1cd", "street": "Hersey Street", "length_ft": 30.0, "area_sqft": 1034.0, "pci": 72.0, "pci_label": "Satisfactory", "elev_min": null, "elev_mean": null, "lidar_coverage": 0.0 }, "geometry": { "type": "LineString", "coordinates": [ [ -71.101743, 42.38672 ], [ -71.101694, 42.386794 ] ] } },
{ "type": "Feature", "properties": { "inspect_id": "IA18712", "client_seg": "eed4afd3ea22afe898d81bc600b8b1cd", "street": "Hersey Street", "length_ft": 30.0, "area_sqft": 760.0, "pci": 74.0, "pci_label": "Satisfactory", "elev_min": null, "elev_mean": null, "lidar_coverage": 0.0 }, "geometry": { "type": "LineString", "coordinates": [ [ -71.101694, 42.386794 ], [ -71.101688861216275, 42.386801760621047 ] ] } }
]
}
