{
  "type": "FeatureCollection",
  "name": "catchments_sample",
  "_note": "STUB. WGS84 (RFC 7946). 3 synthetic catchments in the Somerville demo tile. Replace with curbrisk/export/autodesk_bundle.py output.",
  "crs": { "type": "name", "properties": { "name": "urn:ogc:def:crs:OGC:1.3:CRS84" } },
  "features": [
    {
      "type": "Feature",
      "properties": {
        "catchment_id": "C-001",
        "area_m2": 1850.0,
        "mean_slope_pct": 1.8,
        "time_of_conc_min": 7.5,
        "peak_runoff_cfs": 3.2,
        "inspect_id": "SAMPLE-INSPECT-001",
        "client_seg": "SAMPLE-SEG-001"
      },
      "geometry": {
        "type": "Polygon",
        "coordinates": [[[-71.1030,42.3848],[-71.1024,42.3848],[-71.1024,42.3853],[-71.1030,42.3853],[-71.1030,42.3848]]]
      }
    },
    {
      "type": "Feature",
      "properties": {
        "catchment_id": "C-002",
        "area_m2": 2400.0,
        "mean_slope_pct": 1.1,
        "time_of_conc_min": 9.0,
        "peak_runoff_cfs": 4.6,
        "inspect_id": "SAMPLE-INSPECT-002",
        "client_seg": "SAMPLE-SEG-002"
      },
      "geometry": {
        "type": "Polygon",
        "coordinates": [[[-71.1024,42.3848],[-71.1016,42.3848],[-71.1016,42.3853],[-71.1024,42.3853],[-71.1024,42.3848]]]
      }
    },
    {
      "type": "Feature",
      "properties": {
        "catchment_id": "C-003",
        "area_m2": 1620.0,
        "mean_slope_pct": 2.3,
        "time_of_conc_min": 6.0,
        "peak_runoff_cfs": 2.8,
        "inspect_id": "SAMPLE-INSPECT-003",
        "client_seg": "SAMPLE-SEG-003"
      },
      "geometry": {
        "type": "Polygon",
        "coordinates": [[[-71.1016,42.3848],[-71.1010,42.3848],[-71.1010,42.3853],[-71.1016,42.3853],[-71.1016,42.3848]]]
      }
    }
  ]
}
